{"type":"FeatureCollection","features":[{"type":"Feature","properties":{"name":"Dammam","country":"Saudi Arabia","region":"Ash Sharqiyah","pop":2054710,"capital":"Admin-1 capital"},"geometry":{"type":"Point","coordinates":[50.098,26.43]}},{"type":"Feature","properties":{"name":"Quezon City","country":"Philippines","region":"Metropolitan Manila","pop":2761720,"capital":"Populated place"},"geometry":{"type":"Point","coordinates":[121.03,14.65]}},{"type":"Feature","properties":{"name":"Hechi","country":"China","region":"Guangxi","pop":3830000,"capital":"Populated place"},"geometry":{"type":"Point","coordinates":[108.083,24.695]}},{"type":"Feature","properties":{"name":"Zhangzhou","country":"China","region":"Fujian","pop":3531147,"capital":"Populated place"},"geometry":{"type":"Point","coordinates":[117.67,24.52]}},{"type":"Feature","properties":{"name":"Bekasi","country":"Indonesia","region":"Jakarta Raya","pop":2378211,"capital":"Populated place"},"geometry":{"type":"Point","coordinates":[106.972,-6.217]}},{"type":"Feature","properties":{"name":"Xiangtan","country":"China","region":"Hunan","pop":2586948,"capital":"Populated place"},"geometry":{"type":"Point","coordinates":[112.9,27.85]}},{"type":"Feature","properties":{"name":"Haora","country":"India","region":"West Bengal","pop":4841638,"capital":"Populated place"},"geometry":{"type":"Point","coordinates":[88.33,22.58]}},{"type":"Feature","properties":{"name":"Faisalabad","country":"Pakistan","region":"Punjab","pop":2617000,"capital":"Populated place"},"geometry":{"type":"Point","coordinates":[73.108,31.412]}},{"type":"Feature","properties":{"name":"Giza","country":"Egypt","region":"Al Jizah","pop":2681863,"capital":"Populated place"},"geometry":{"type":"Point","coordinates":[31.19,30.01]}},{"type":"Feature","properties":{"name":"Haikou","country":"China","region":"Hainan","pop":2046189,"capital":"Admin-1 capital"},"geometry":{"type":"Point","coordinates":[110.32,20.05]}},{"type":"Feature","properties":{"name":"Moroni","country":"Comoros","region":null,"pop":128698,"capital":"Admin-0 capital"},"geometry":{"type":"Point","coordinates":[43.24,-11.704]}},{"type":"Feature","properties":{"name":"New Taipei","country":"Taiwan","region":"New Taipei City","pop":3893740,"capital":"Admin-1 capital"},"geometry":{"type":"Point","coordinates":[121.465,25.013]}},{"type":"Feature","properties":{"name":"Xiamen","country":"China","region":"Fujian","pop":2519000,"capital":"Populated place"},"geometry":{"type":"Point","coordinates":[118.078,24.452]}},{"type":"Feature","properties":{"name":"Nanchong","country":"China","region":"Sichuan","pop":2174000,"capital":"Populated place"},"geometry":{"type":"Point","coordinates":[106.128,30.782]}},{"type":"Feature","properties":{"name":"Jinxi","country":"China","region":"Liaoning","pop":2426000,"capital":"Populated place"},"geometry":{"type":"Point","coordinates":[120.828,40.752]}},{"type":"Feature","properties":{"name":"Yantai","country":"China","region":"Shandong","pop":2116000,"capital":"Populated place"},"geometry":{"type":"Point","coordinates":[121.398,37.532]}},{"type":"Feature","properties":{"name":"Zaozhuang","country":"China","region":"Shandong","pop":2145000,"capital":"Populated place"},"geometry":{"type":"Point","coordinates":[117.568,34.882]}},{"type":"Feature","properties":{"name":"Xuzhou","country":"China","region":"Jiangsu","pop":2091000,"capital":"Populated place"},"geometry":{"type":"Point","coordinates":[117.178,34.282]}},{"type":"Feature","properties":{"name":"\u0130zmir","country":"Turkey","region":"Izmir","pop":2587000,"capital":"Admin-1 capital"},"geometry":{"type":"Point","coordinates":[27.15,38.438]}},{"type":"Feature","properties":{"name":"Kigali","country":"Rwanda","region":"Kigali City","pop":860000,"capital":"Admin-0 capital"},"geometry":{"type":"Point","coordinates":[30.059,-1.952]}},{"type":"Feature","properties":{"name":"Juba","country":"South Sudan","region":"Central Equatoria","pop":111975,"capital":"Admin-0 capital"},"geometry":{"type":"Point","coordinates":[31.58,4.83]}},{"type":"Feature","properties":{"name":"Omdurman","country":"Sudan","region":"Khartoum","pop":2395159,"capital":"Admin-1 capital"},"geometry":{"type":"Point","coordinates":[32.48,15.617]}},{"type":"Feature","properties":{"name":"Doha","country":"Qatar","region":"Ad Dawhah","pop":1450000,"capital":"Admin-0 capital"},"geometry":{"type":"Point","coordinates":[51.533,25.287]}},{"type":"Feature","properties":{"name":"Sri Jayawardenepura Kotte","country":"Sri Lanka","region":"Colombo","pop":115826,"capital":"Admin-0 capital alt"},"geometry":{"type":"Point","coordinates":[79.95,6.9]}},{"type":"Feature","properties":{"name":"Baguio","country":"Philippines","region":"Benguet","pop":447824,"capital":"Admin-0 capital alt"},"geometry":{"type":"Point","coordinates":[120.57,16.43]}},{"type":"Feature","properties":{"name":"Dodoma","country":"Tanzania","region":"Dodoma","pop":218269,"capital":"Admin-0 capital alt"},"geometry":{"type":"Point","coordinates":[35.75,-6.183]}},{"type":"Feature","properties":{"name":"Pristina","country":"Kosovo","region":"Pristina","pop":465186,"capital":"Admin-0 capital"},"geometry":{"type":"Point","coordinates":[21.166,42.667]}},{"type":"Feature","properties":{"name":"George Town","country":"Malaysia","region":"Pulau Pinang","pop":2500000,"capital":"Admin-1 capital"},"geometry":{"type":"Point","coordinates":[100.329,5.414]}},{"type":"Feature","properties":{"name":"Hefei","country":"China","region":"Anhui","pop":2035000,"capital":"Admin-1 capital"},"geometry":{"type":"Point","coordinates":[117.278,31.852]}},{"type":"Feature","properties":{"name":"Djibouti","country":"Djibouti","region":"Djibouti","pop":923000,"capital":"Admin-0 capital"},"geometry":{"type":"Point","coordinates":[43.148,11.595]}},{"type":"Feature","properties":{"name":"Putrajaya","country":"Malaysia","region":"Selangor","pop":67964,"capital":"Admin-0 capital alt"},"geometry":{"type":"Point","coordinates":[101.702,2.914]}},{"type":"Feature","properties":{"name":"Shijiazhuang","country":"China","region":"Hebei","pop":2417000,"capital":"Admin-1 capital"},"geometry":{"type":"Point","coordinates":[114.478,38.052]}},{"type":"Feature","properties":{"name":"Dalian","country":"China","region":"Liaoning","pop":3167000,"capital":"Populated place"},"geometry":{"type":"Point","coordinates":[121.628,38.925]}},{"type":"Feature","properties":{"name":"Qingdao","country":"China","region":"Shandong","pop":2866000,"capital":"Populated place"},"geometry":{"type":"Point","coordinates":[120.328,36.092]}},{"type":"Feature","properties":{"name":"Linyi","country":"China","region":"Shandong","pop":2082000,"capital":"Populated place"},"geometry":{"type":"Point","coordinates":[118.328,35.082]}},{"type":"Feature","properties":{"name":"Wenzhou","country":"China","region":"Zhejiang","pop":2350000,"capital":"Populated place"},"geometry":{"type":"Point","coordinates":[120.648,28.022]}},{"type":"Feature","properties":{"name":"Skopje","country":"North Macedonia","region":"Centar","pop":494087,"capital":"Admin-0 capital"},"geometry":{"type":"Point","coordinates":[21.433,42.0]}},{"type":"Feature","properties":{"name":"Lucknow","country":"India","region":"Uttar Pradesh","pop":2695000,"capital":"Admin-1 capital"},"geometry":{"type":"Point","coordinates":[80.913,26.857]}},{"type":"Feature","properties":{"name":"Indore","country":"India","region":"Madhya Pradesh","pop":2026000,"capital":"Populated place"},"geometry":{"type":"Point","coordinates":[75.863,22.717]}},{"type":"Feature","properties":{"name":"Bujumbura","country":"Burundi","region":"Bujumbura Mairie","pop":331700,"capital":"Admin-0 capital"},"geometry":{"type":"Point","coordinates":[29.36,-3.376]}},{"type":"Feature","properties":{"name":"Port Louis","country":"Mauritius","region":null,"pop":595491,"capital":"Admin-0 capital"},"geometry":{"type":"Point","coordinates":[57.5,-20.167]}},{"type":"Feature","properties":{"name":"Manama","country":"Bahrain","region":null,"pop":563920,"capital":"Admin-0 capital"},"geometry":{"type":"Point","coordinates":[50.583,26.236]}},{"type":"Feature","properties":{"name":"Taichung","country":"Taiwan","region":"Taichung City","pop":2629323,"capital":"Admin-1 capital"},"geometry":{"type":"Point","coordinates":[120.682,24.152]}},{"type":"Feature","properties":{"name":"Amaravati","country":"India","region":"Andhra Pradesh","pop":5800000,"capital":"Admin-1 capital"},"geometry":{"type":"Point","coordinates":[80.524,16.534]}},{"type":"Feature","properties":{"name":"Abu Dhabi","country":"United Arab Emirates","region":"Abu Dhabi","pop":603492,"capital":"Admin-0 capital"},"geometry":{"type":"Point","coordinates":[54.367,24.467]}},{"type":"Feature","properties":{"name":"Ashgabat","country":"Turkmenistan","region":"Ahal","pop":727700,"capital":"Admin-0 capital"},"geometry":{"type":"Point","coordinates":[58.383,37.95]}},{"type":"Feature","properties":{"name":"Lusaka","country":"Zambia","region":"Lusaka","pop":1328000,"capital":"Admin-0 capital"},"geometry":{"type":"Point","coordinates":[28.281,-15.415]}},{"type":"Feature","properties":{"name":"Harare","country":"Zimbabwe","region":"Harare","pop":1572000,"capital":"Admin-0 capital"},"geometry":{"type":"Point","coordinates":[31.043,-17.816]}},{"type":"Feature","properties":{"name":"Kampala","country":"Uganda","region":"Kampala","pop":1420000,"capital":"Admin-0 capital"},"geometry":{"type":"Point","coordinates":[32.581,0.319]}},{"type":"Feature","properties":{"name":"Dushanbe","country":"Tajikistan","region":"Tadzhikistan Territories","pop":1086244,"capital":"Admin-0 capital"},"geometry":{"type":"Point","coordinates":[68.774,38.56]}},{"type":"Feature","properties":{"name":"Islamabad","country":"Pakistan","region":"F.C.T.","pop":780000,"capital":"Admin-0 capital"},"geometry":{"type":"Point","coordinates":[73.165,33.702]}},{"type":"Feature","properties":{"name":"Kathmandu","country":"Nepal","region":"Bhaktapur","pop":895000,"capital":"Admin-0 capital"},"geometry":{"type":"Point","coordinates":[85.315,27.719]}},{"type":"Feature","properties":{"name":"Chi\u0219in\u0103u","country":"Moldova","region":"Chisinau","pop":688134,"capital":"Admin-0 capital"},"geometry":{"type":"Point","coordinates":[28.858,47.005]}},{"type":"Feature","properties":{"name":"Mogadishu","country":"Somalia","region":"Banaadir","pop":1100000,"capital":"Admin-0 capital"},"geometry":{"type":"Point","coordinates":[45.365,2.069]}},{"type":"Feature","properties":{"name":"Muscat","country":"Oman","region":"Muscat","pop":734697,"capital":"Admin-0 capital"},"geometry":{"type":"Point","coordinates":[58.593,23.613]}},{"type":"Feature","properties":{"name":"Colombo","country":"Sri Lanka","region":"Colombo","pop":217000,"capital":"Admin-0 capital"},"geometry":{"type":"Point","coordinates":[79.858,6.932]}},{"type":"Feature","properties":{"name":"Ulaanbaatar","country":"Mongolia","region":"Ulaanbaatar","pop":885000,"capital":"Admin-0 capital"},"geometry":{"type":"Point","coordinates":[106.915,47.919]}},{"type":"Feature","properties":{"name":"Amman","country":"Jordan","region":"Amman","pop":1060000,"capital":"Admin-0 capital"},"geometry":{"type":"Point","coordinates":[35.931,31.952]}},{"type":"Feature","properties":{"name":"Bishkek","country":"Kyrgyzstan","region":"Bishkek","pop":837000,"capital":"Admin-0 capital"},"geometry":{"type":"Point","coordinates":[74.583,42.875]}},{"type":"Feature","properties":{"name":"Antananarivo","country":"Madagascar","region":"Antananarivo","pop":1697000,"capital":"Admin-0 capital"},"geometry":{"type":"Point","coordinates":[47.515,-18.915]}},{"type":"Feature","properties":{"name":"Asmara","country":"Eritrea","region":"Anseba","pop":620802,"capital":"Admin-0 capital"},"geometry":{"type":"Point","coordinates":[38.933,15.333]}},{"type":"Feature","properties":{"name":"Lilongwe","country":"Malawi","region":"Lilongwe","pop":646750,"capital":"Admin-0 capital"},"geometry":{"type":"Point","coordinates":[33.783,-13.983]}},{"type":"Feature","properties":{"name":"Beirut","country":"Lebanon","region":"Beirut","pop":1846000,"capital":"Admin-0 capital"},"geometry":{"type":"Point","coordinates":[35.508,33.874]}},{"type":"Feature","properties":{"name":"Tbilisi","country":"Georgia","region":"Tbilisi","pop":1100000,"capital":"Admin-0 capital"},"geometry":{"type":"Point","coordinates":[44.789,41.727]}},{"type":"Feature","properties":{"name":"Vientiane","country":"Laos","region":"Vientiane [prefecture]","pop":754000,"capital":"Admin-0 capital"},"geometry":{"type":"Point","coordinates":[102.6,17.967]}},{"type":"Feature","properties":{"name":"Belgrade","country":"Serbia","region":"Grad Beograd","pop":1099000,"capital":"Admin-0 capital"},"geometry":{"type":"Point","coordinates":[20.466,44.821]}},{"type":"Feature","properties":{"name":"Bandar Seri Begawan","country":"Brunei","region":"Brunei and Muara","pop":296500,"capital":"Admin-0 capital"},"geometry":{"type":"Point","coordinates":[114.933,4.883]}},{"type":"Feature","properties":{"name":"Yerevan","country":"Armenia","region":"Erevan","pop":1102000,"capital":"Admin-0 capital"},"geometry":{"type":"Point","coordinates":[44.512,40.183]}},{"type":"Feature","properties":{"name":"Baku","country":"Azerbaijan","region":"Baki","pop":2122300,"capital":"Admin-0 capital"},"geometry":{"type":"Point","coordinates":[49.86,40.397]}},{"type":"Feature","properties":{"name":"Phnom Penh","country":"Cambodia","region":"Phnom Penh","pop":1466000,"capital":"Admin-0 capital"},"geometry":{"type":"Point","coordinates":[104.915,11.552]}},{"type":"Feature","properties":{"name":"Sofia","country":"Bulgaria","region":"Grad Sofiya","pop":1185000,"capital":"Admin-0 capital"},"geometry":{"type":"Point","coordinates":[23.315,42.685]}},{"type":"Feature","properties":{"name":"Thimphu","country":"Bhutan","region":"Thimphu","pop":98676,"capital":"Admin-0 capital"},"geometry":{"type":"Point","coordinates":[89.639,27.473]}},{"type":"Feature","properties":{"name":"Gaborone","country":"Botswana","region":"South-East","pop":208411,"capital":"Admin-0 capital"},"geometry":{"type":"Point","coordinates":[25.912,-24.646]}},{"type":"Feature","properties":{"name":"Naypyidaw","country":"Myanmar","region":"Mandalay","pop":930000,"capital":"Admin-0 capital"},"geometry":{"type":"Point","coordinates":[96.117,19.769]}},{"type":"Feature","properties":{"name":"Hargeisa","country":"Somaliland","region":null,"pop":477876,"capital":"Admin-0 capital"},"geometry":{"type":"Point","coordinates":[44.065,9.56]}},{"type":"Feature","properties":{"name":"Victoria","country":"Seychelles","region":null,"pop":33576,"capital":"Admin-0 capital"},"geometry":{"type":"Point","coordinates":[55.45,-4.617]}},{"type":"Feature","properties":{"name":"Mal\u00e9","country":"Maldives","region":null,"pop":112927,"capital":"Admin-0 capital"},"geometry":{"type":"Point","coordinates":[73.5,4.167]}},{"type":"Feature","properties":{"name":"Jerusalem","country":"Israel","region":"Jerusalem","pop":1029300,"capital":"Admin-0 capital"},"geometry":{"type":"Point","coordinates":[35.207,31.778]}},{"type":"Feature","properties":{"name":"Nicosia","country":"Cyprus","region":null,"pop":224300,"capital":"Admin-0 capital"},"geometry":{"type":"Point","coordinates":[33.367,35.167]}},{"type":"Feature","properties":{"name":"Kaohsiung","country":"Taiwan","region":"Kaohsiung City","pop":2769072,"capital":"Admin-1 capital"},"geometry":{"type":"Point","coordinates":[120.267,22.633]}},{"type":"Feature","properties":{"name":"Shenzhen","country":"China","region":"Guangdong","pop":7581000,"capital":"Populated place"},"geometry":{"type":"Point","coordinates":[114.12,22.554]}},{"type":"Feature","properties":{"name":"Zibo","country":"China","region":"Shandong","pop":3061000,"capital":"Populated place"},"geometry":{"type":"Point","coordinates":[118.048,36.802]}},{"type":"Feature","properties":{"name":"Hanoi","country":"Vietnam","region":"Th\u00e1i Nguy\u00ean","pop":4378000,"capital":"Admin-0 capital"},"geometry":{"type":"Point","coordinates":[105.848,21.035]}},{"type":"Feature","properties":{"name":"Ho Chi Minh City","country":"Vietnam","region":"H? Ch\u00ed Minh city","pop":5314000,"capital":"Admin-1 capital"},"geometry":{"type":"Point","coordinates":[106.693,10.782]}},{"type":"Feature","properties":{"name":"Ankara","country":"Turkey","region":"Ankara","pop":3716000,"capital":"Admin-0 capital"},"geometry":{"type":"Point","coordinates":[32.862,39.929]}},{"type":"Feature","properties":{"name":"Sanaa","country":"Yemen","region":"Amanat Al Asimah","pop":2008000,"capital":"Admin-0 capital"},"geometry":{"type":"Point","coordinates":[44.205,15.357]}},{"type":"Feature","properties":{"name":"Bucharest","country":"Romania","region":"Bucharest","pop":1942000,"capital":"Admin-0 capital"},"geometry":{"type":"Point","coordinates":[26.098,44.435]}},{"type":"Feature","properties":{"name":"Aleppo","country":"Syria","region":"Aleppo (Halab)","pop":2738000,"capital":"Populated place"},"geometry":{"type":"Point","coordinates":[37.168,36.232]}},{"type":"Feature","properties":{"name":"Damascus","country":"Syria","region":"Damascus","pop":2466000,"capital":"Admin-0 capital"},"geometry":{"type":"Point","coordinates":[36.298,33.502]}},{"type":"Feature","properties":{"name":"Khartoum","country":"Sudan","region":"Khartoum","pop":4754000,"capital":"Admin-0 capital"},"geometry":{"type":"Point","coordinates":[32.532,15.59]}},{"type":"Feature","properties":{"name":"Jeddah","country":"Saudi Arabia","region":"Makkah","pop":3012000,"capital":"Populated place"},"geometry":{"type":"Point","coordinates":[39.217,21.519]}},{"type":"Feature","properties":{"name":"Lahore","country":"Pakistan","region":"Punjab","pop":6577000,"capital":"Admin-1 capital"},"geometry":{"type":"Point","coordinates":[74.348,31.562]}},{"type":"Feature","properties":{"name":"Karachi","country":"Pakistan","region":"Sind","pop":12130000,"capital":"Admin-1 capital"},"geometry":{"type":"Point","coordinates":[66.988,24.872]}},{"type":"Feature","properties":{"name":"Dar es Salaam","country":"Tanzania","region":"Dar-Es-Salaam","pop":2930000,"capital":"Admin-0 capital"},"geometry":{"type":"Point","coordinates":[39.266,-6.798]}},{"type":"Feature","properties":{"name":"Medan","country":"Indonesia","region":"Sumatera Utara","pop":2115000,"capital":"Admin-1 capital"},"geometry":{"type":"Point","coordinates":[98.648,3.582]}},{"type":"Feature","properties":{"name":"Kuala Lumpur","country":"Malaysia","region":"Selangor","pop":1448000,"capital":"Admin-0 capital"},"geometry":{"type":"Point","coordinates":[101.698,3.169]}},{"type":"Feature","properties":{"name":"Lanzhou","country":"China","region":"Gansu","pop":2561000,"capital":"Admin-1 capital"},"geometry":{"type":"Point","coordinates":[103.79,36.058]}},{"type":"Feature","properties":{"name":"Nanning","country":"China","region":"Guangxi","pop":2167000,"capital":"Admin-1 capital"},"geometry":{"type":"Point","coordinates":[108.318,22.822]}},{"type":"Feature","properties":{"name":"Guiyang","country":"China","region":"Guizhou","pop":3662000,"capital":"Admin-1 capital"},"geometry":{"type":"Point","coordinates":[106.718,26.582]}},{"type":"Feature","properties":{"name":"Chongqing","country":"China","region":"Chongqing","pop":6461000,"capital":"Admin-1 capital"},"geometry":{"type":"Point","coordinates":[106.593,29.567]}},{"type":"Feature","properties":{"name":"Fuzhou","country":"China","region":"Fujian","pop":2606000,"capital":"Admin-1 capital"},"geometry":{"type":"Point","coordinates":[119.298,26.082]}},{"type":"Feature","properties":{"name":"Guangzhou","country":"China","region":"Guangdong","pop":8829000,"capital":"Admin-1 capital"},"geometry":{"type":"Point","coordinates":[113.323,23.147]}},{"type":"Feature","properties":{"name":"Dongguan","country":"China","region":"Guangdong","pop":4528000,"capital":"Populated place"},"geometry":{"type":"Point","coordinates":[113.743,23.051]}},{"type":"Feature","properties":{"name":"Bandung","country":"Indonesia","region":"Jawa Barat","pop":2394000,"capital":"Admin-1 capital"},"geometry":{"type":"Point","coordinates":[107.568,-6.948]}},{"type":"Feature","properties":{"name":"Surabaya","country":"Indonesia","region":"Jawa Timur","pop":2845000,"capital":"Admin-1 capital"},"geometry":{"type":"Point","coordinates":[112.749,-7.247]}},{"type":"Feature","properties":{"name":"Alexandria","country":"Egypt","region":"Al Iskandariyah","pop":4165000,"capital":"Populated place"},"geometry":{"type":"Point","coordinates":[29.948,31.202]}},{"type":"Feature","properties":{"name":"Kuwait City","country":"Kuwait","region":"Al Kuwayt","pop":2063000,"capital":"Admin-0 capital"},"geometry":{"type":"Point","coordinates":[47.976,29.372]}},{"type":"Feature","properties":{"name":"Xian","country":"China","region":"Shaanxi","pop":4009000,"capital":"Admin-1 capital"},"geometry":{"type":"Point","coordinates":[108.893,34.277]}},{"type":"Feature","properties":{"name":"Taiyuan","country":"China","region":"Shanxi","pop":2913000,"capital":"Admin-1 capital"},"geometry":{"type":"Point","coordinates":[112.543,37.877]}},{"type":"Feature","properties":{"name":"Wuhan","country":"China","region":"Hubei","pop":7243000,"capital":"Admin-1 capital"},"geometry":{"type":"Point","coordinates":[114.268,30.582]}},{"type":"Feature","properties":{"name":"Changsha","country":"China","region":"Hunan","pop":2604000,"capital":"Admin-1 capital"},"geometry":{"type":"Point","coordinates":[112.968,28.202]}},{"type":"Feature","properties":{"name":"Kunming","country":"China","region":"Yunnan","pop":2931000,"capital":"Admin-1 capital"},"geometry":{"type":"Point","coordinates":[102.678,25.072]}},{"type":"Feature","properties":{"name":"Zhengzhou","country":"China","region":"Henan","pop":2636000,"capital":"Admin-1 capital"},"geometry":{"type":"Point","coordinates":[113.663,34.757]}},{"type":"Feature","properties":{"name":"Shenyeng","country":"China","region":"Liaoning","pop":4787000,"capital":"Admin-1 capital"},"geometry":{"type":"Point","coordinates":[123.448,41.807]}},{"type":"Feature","properties":{"name":"Jinan","country":"China","region":"Shandong","pop":2798000,"capital":"Admin-1 capital"},"geometry":{"type":"Point","coordinates":[116.993,36.677]}},{"type":"Feature","properties":{"name":"Tianjin","country":"China","region":"Tianjin","pop":7180000,"capital":"Admin-1 capital"},"geometry":{"type":"Point","coordinates":[117.198,39.132]}},{"type":"Feature","properties":{"name":"Nanchang","country":"China","region":"Jiangxi","pop":2350000,"capital":"Admin-1 capital"},"geometry":{"type":"Point","coordinates":[115.878,28.682]}},{"type":"Feature","properties":{"name":"Nanjing","country":"China","region":"Jiangsu","pop":3679000,"capital":"Admin-1 capital"},"geometry":{"type":"Point","coordinates":[118.778,32.052]}},{"type":"Feature","properties":{"name":"Hangzhou","country":"China","region":"Zhejiang","pop":3007000,"capital":"Admin-1 capital"},"geometry":{"type":"Point","coordinates":[120.168,30.252]}},{"type":"Feature","properties":{"name":"Baotou","country":"China","region":"Nei Mongol","pop":2036000,"capital":"Populated place"},"geometry":{"type":"Point","coordinates":[109.82,40.654]}},{"type":"Feature","properties":{"name":"Delhi","country":"India","region":"Delhi","pop":15926000,"capital":"Populated place"},"geometry":{"type":"Point","coordinates":[77.228,28.672]}},{"type":"Feature","properties":{"name":"Hyderabad","country":"India","region":"Telangana","pop":6376000,"capital":"Admin-1 capital"},"geometry":{"type":"Point","coordinates":[78.478,17.402]}},{"type":"Feature","properties":{"name":"Pune","country":"India","region":"Maharashtra","pop":4672000,"capital":"Populated place"},"geometry":{"type":"Point","coordinates":[73.848,18.532]}},{"type":"Feature","properties":{"name":"Nagpur","country":"India","region":"Maharashtra","pop":2454000,"capital":"Populated place"},"geometry":{"type":"Point","coordinates":[79.088,21.172]}},{"type":"Feature","properties":{"name":"Tel Aviv","country":"Israel","region":"Tel Aviv","pop":3112000,"capital":"Admin-0 capital alt"},"geometry":{"type":"Point","coordinates":[34.768,32.082]}},{"type":"Feature","properties":{"name":"Mashhad","country":"Iran","region":"Razavi Khorasan","pop":2469000,"capital":"Admin-1 capital"},"geometry":{"type":"Point","coordinates":[59.568,36.272]}},{"type":"Feature","properties":{"name":"Jaipur","country":"India","region":"Rajasthan","pop":2917000,"capital":"Admin-1 capital"},"geometry":{"type":"Point","coordinates":[75.808,26.923]}},{"type":"Feature","properties":{"name":"Kanpur","country":"India","region":"Uttar Pradesh","pop":3162000,"capital":"Populated place"},"geometry":{"type":"Point","coordinates":[80.318,26.462]}},{"type":"Feature","properties":{"name":"Patna","country":"India","region":"Bihar","pop":2158000,"capital":"Admin-1 capital"},"geometry":{"type":"Point","coordinates":[85.128,25.627]}},{"type":"Feature","properties":{"name":"Chennai","country":"India","region":"Tamil Nadu","pop":7163000,"capital":"Admin-1 capital"},"geometry":{"type":"Point","coordinates":[80.278,13.092]}},{"type":"Feature","properties":{"name":"Ahmedabad","country":"India","region":"Dadra and Nagar Haveli","pop":5375000,"capital":"Populated place"},"geometry":{"type":"Point","coordinates":[72.578,23.032]}},{"type":"Feature","properties":{"name":"Surat","country":"India","region":"Dadra and Nagar Haveli","pop":3842000,"capital":"Populated place"},"geometry":{"type":"Point","coordinates":[72.838,21.202]}},{"type":"Feature","properties":{"name":"Dhaka","country":"Bangladesh","region":"Dhaka","pop":12797394,"capital":"Admin-0 capital"},"geometry":{"type":"Point","coordinates":[90.407,23.725]}},{"type":"Feature","properties":{"name":"Chattogram","country":"Bangladesh","region":"Chittagong","pop":4529000,"capital":"Admin-1 capital"},"geometry":{"type":"Point","coordinates":[91.798,22.332]}},{"type":"Feature","properties":{"name":"Yangon","country":"Myanmar","region":"Yangon","pop":4088000,"capital":"Admin-0 capital"},"geometry":{"type":"Point","coordinates":[96.165,16.785]}},{"type":"Feature","properties":{"name":"Tashkent","country":"Uzbekistan","region":"Tashkent","pop":2184000,"capital":"Admin-0 capital"},"geometry":{"type":"Point","coordinates":[69.293,41.314]}},{"type":"Feature","properties":{"name":"Bangkok","country":"Thailand","region":"Bangkok Metropolis","pop":6704000,"capital":"Admin-0 capital"},"geometry":{"type":"Point","coordinates":[100.515,13.752]}},{"type":"Feature","properties":{"name":"Manila","country":"Philippines","region":"Metropolitan Manila","pop":11100000,"capital":"Admin-0 capital"},"geometry":{"type":"Point","coordinates":[120.98,14.606]}},{"type":"Feature","properties":{"name":"\u00dcr\u00fcmqi","country":"China","region":"Xinjiang Uygur","pop":3575000,"capital":"Admin-1 capital"},"geometry":{"type":"Point","coordinates":[87.573,43.807]}},{"type":"Feature","properties":{"name":"Chengdu","country":"China","region":"Sichuan","pop":4123000,"capital":"Admin-1 capital"},"geometry":{"type":"Point","coordinates":[104.068,30.672]}},{"type":"Feature","properties":{"name":"New Delhi","country":"India","region":"Delhi","pop":317797,"capital":"Admin-0 capital"},"geometry":{"type":"Point","coordinates":[77.2,28.6]}},{"type":"Feature","properties":{"name":"Bengaluru","country":"India","region":"Karnataka","pop":6787000,"capital":"Admin-1 capital"},"geometry":{"type":"Point","coordinates":[77.558,12.972]}},{"type":"Feature","properties":{"name":"Athens","country":"Greece","region":"Attiki","pop":3242000,"capital":"Admin-0 capital"},"geometry":{"type":"Point","coordinates":[23.731,37.985]}},{"type":"Feature","properties":{"name":"Baghdad","country":"Iraq","region":"Baghdad","pop":5054000,"capital":"Admin-0 capital"},"geometry":{"type":"Point","coordinates":[44.392,33.341]}},{"type":"Feature","properties":{"name":"Addis Ababa","country":"Ethiopia","region":"Addis Ababa","pop":3100000,"capital":"Admin-0 capital"},"geometry":{"type":"Point","coordinates":[38.698,9.035]}},{"type":"Feature","properties":{"name":"Tehran","country":"Iran","region":"Tehran","pop":7873000,"capital":"Admin-0 capital"},"geometry":{"type":"Point","coordinates":[51.422,35.674]}},{"type":"Feature","properties":{"name":"Kabul","country":"Afghanistan","region":"Kabul","pop":3277000,"capital":"Admin-0 capital"},"geometry":{"type":"Point","coordinates":[69.181,34.519]}},{"type":"Feature","properties":{"name":"Taipei","country":"Taiwan","region":"Taipei City","pop":6900273,"capital":"Admin-0 capital"},"geometry":{"type":"Point","coordinates":[121.568,25.036]}},{"type":"Feature","properties":{"name":"Istanbul","country":"Turkey","region":"Istanbul","pop":10061000,"capital":"Admin-1 capital"},"geometry":{"type":"Point","coordinates":[29.008,41.107]}},{"type":"Feature","properties":{"name":"Riyadh","country":"Saudi Arabia","region":"Ar Riyad","pop":4465000,"capital":"Admin-0 capital"},"geometry":{"type":"Point","coordinates":[46.771,24.643]}},{"type":"Feature","properties":{"name":"Beijing","country":"China","region":"Beijing","pop":11106000,"capital":"Admin-0 capital"},"geometry":{"type":"Point","coordinates":[116.386,39.931]}},{"type":"Feature","properties":{"name":"Nairobi","country":"Kenya","region":"Nairobi","pop":3010000,"capital":"Admin-0 capital"},"geometry":{"type":"Point","coordinates":[36.815,-1.281]}},{"type":"Feature","properties":{"name":"Jakarta","country":"Indonesia","region":"Jakarta Raya","pop":9125000,"capital":"Admin-0 capital"},"geometry":{"type":"Point","coordinates":[106.827,-6.172]}},{"type":"Feature","properties":{"name":"Cairo","country":"Egypt","region":"Al Qahirah","pop":11893000,"capital":"Admin-0 capital"},"geometry":{"type":"Point","coordinates":[31.248,30.052]}},{"type":"Feature","properties":{"name":"Shanghai","country":"China","region":"Shanghai","pop":14987000,"capital":"Admin-1 capital"},"geometry":{"type":"Point","coordinates":[121.435,31.218]}},{"type":"Feature","properties":{"name":"Mumbai","country":"India","region":"Maharashtra","pop":18978000,"capital":"Admin-1 capital"},"geometry":{"type":"Point","coordinates":[72.855,19.019]}},{"type":"Feature","properties":{"name":"Kolkata","country":"India","region":"West Bengal","pop":14787000,"capital":"Admin-1 capital"},"geometry":{"type":"Point","coordinates":[88.323,22.497]}},{"type":"Feature","properties":{"name":"Singapore","country":"Singapore","region":null,"pop":5183700,"capital":"Admin-0 capital"},"geometry":{"type":"Point","coordinates":[103.854,1.295]}},{"type":"Feature","properties":{"name":"Hong Kong","country":"Hong Kong S.A.R.","region":null,"pop":7206000,"capital":"Admin-0 region capital"},"geometry":{"type":"Point","coordinates":[114.183,22.307]}}]}