{"type":"FeatureCollection","features":[{"type":"Feature","properties":{"name":"Kamphaeng Phet","country":"Thailand","region":"Kamphaeng Phet","pop":58787,"capital":"Admin-1 capital"},"geometry":{"type":"Point","coordinates":[99.529,16.473]}},{"type":"Feature","properties":{"name":"Phetchabun","country":"Thailand","region":"Phetchabun","pop":50656,"capital":"Admin-1 capital"},"geometry":{"type":"Point","coordinates":[101.159,16.419]}},{"type":"Feature","properties":{"name":"Supham Buri","country":"Thailand","region":"Suphan Buri","pop":53399,"capital":"Admin-1 capital"},"geometry":{"type":"Point","coordinates":[100.129,14.471]}},{"type":"Feature","properties":{"name":"Nakhon Pathom","country":"Thailand","region":"Nakhon Pathom","pop":117927,"capital":"Admin-1 capital"},"geometry":{"type":"Point","coordinates":[100.064,13.818]}},{"type":"Feature","properties":{"name":"Samut Sakhon","country":"Thailand","region":"Samut Sakhon","pop":63498,"capital":"Admin-1 capital"},"geometry":{"type":"Point","coordinates":[100.274,13.536]}},{"type":"Feature","properties":{"name":"Pattani","country":"Thailand","region":"Pattani","pop":150000,"capital":"Admin-1 capital"},"geometry":{"type":"Point","coordinates":[101.25,6.864]}},{"type":"Feature","properties":{"name":"Bhairawa","country":"Nepal","region":"Lumbini","pop":63367,"capital":"Admin-1 capital"},"geometry":{"type":"Point","coordinates":[83.383,27.533]}},{"type":"Feature","properties":{"name":"Dhangarhi","country":"Nepal","region":"Achham","pop":92294,"capital":"Admin-1 capital"},"geometry":{"type":"Point","coordinates":[80.593,28.695]}},{"type":"Feature","properties":{"name":"Trincomalee","country":"Sri Lanka","region":"Trincomalee","pop":108420,"capital":"Admin-1 capital"},"geometry":{"type":"Point","coordinates":[81.233,8.569]}},{"type":"Feature","properties":{"name":"Kangar","country":"Malaysia","region":"Perlis","pop":63869,"capital":"Admin-1 capital"},"geometry":{"type":"Point","coordinates":[100.19,6.433]}},{"type":"Feature","properties":{"name":"Shah Alam","country":"Malaysia","region":"Selangor","pop":481654,"capital":"Admin-1 capital"},"geometry":{"type":"Point","coordinates":[101.55,3.067]}},{"type":"Feature","properties":{"name":"Hawalli","country":"Kuwait","region":"Hawalli","pop":164212,"capital":"Admin-1 capital"},"geometry":{"type":"Point","coordinates":[48.0,29.333]}},{"type":"Feature","properties":{"name":"Lashkar Gah","country":"Afghanistan","region":"Hilmand","pop":201546,"capital":"Admin-1 capital"},"geometry":{"type":"Point","coordinates":[64.36,31.583]}},{"type":"Feature","properties":{"name":"Pa-an","country":"Myanmar","region":"Kayin","pop":50000,"capital":"Admin-1 capital"},"geometry":{"type":"Point","coordinates":[97.617,16.85]}},{"type":"Feature","properties":{"name":"Taunggyi","country":"Myanmar","region":"Shan","pop":160115,"capital":"Admin-1 capital"},"geometry":{"type":"Point","coordinates":[97.038,20.782]}},{"type":"Feature","properties":{"name":"Sagaing","country":"Myanmar","region":"Sagaing","pop":78739,"capital":"Admin-1 capital"},"geometry":{"type":"Point","coordinates":[95.962,21.88]}},{"type":"Feature","properties":{"name":"Laascaanood","country":"Somaliland","region":null,"pop":60100,"capital":"Admin-1 capital"},"geometry":{"type":"Point","coordinates":[47.317,8.433]}},{"type":"Feature","properties":{"name":"Ceerigaabo","country":"Somaliland","region":null,"pop":180000,"capital":"Admin-1 capital"},"geometry":{"type":"Point","coordinates":[47.333,10.583]}},{"type":"Feature","properties":{"name":"Sakakah","country":"Saudi Arabia","region":"Al Jawf","pop":128332,"capital":"Admin-1 capital"},"geometry":{"type":"Point","coordinates":[40.133,30.0]}},{"type":"Feature","properties":{"name":"Awasa","country":"Ethiopia","region":"Southern Nations, Nationalities and Peoples","pop":133097,"capital":"Admin-1 capital"},"geometry":{"type":"Point","coordinates":[38.477,7.06]}},{"type":"Feature","properties":{"name":"Yasuj","country":"Iran","region":"Kohgiluyeh and Buyer Ahmad","pop":96786,"capital":"Admin-1 capital"},"geometry":{"type":"Point","coordinates":[51.594,30.659]}},{"type":"Feature","properties":{"name":"Panaji","country":"India","region":"Goa","pop":65586,"capital":"Admin-1 capital"},"geometry":{"type":"Point","coordinates":[73.818,15.492]}},{"type":"Feature","properties":{"name":"Dhamar","country":"Yemen","region":"Dhamar","pop":191259,"capital":"Admin-1 capital"},"geometry":{"type":"Point","coordinates":[44.387,14.557]}},{"type":"Feature","properties":{"name":"Ibb","country":"Yemen","region":"Ibb","pop":234837,"capital":"Admin-1 capital"},"geometry":{"type":"Point","coordinates":[44.171,13.976]}},{"type":"Feature","properties":{"name":"Ash Shihr","country":"Yemen","region":"Hadramawt","pop":54274,"capital":"Populated place"},"geometry":{"type":"Point","coordinates":[49.609,14.759]}},{"type":"Feature","properties":{"name":"Sharjah","country":"United Arab Emirates","region":"Sharjah","pop":1103027,"capital":"Admin-1 capital"},"geometry":{"type":"Point","coordinates":[55.406,25.371]}},{"type":"Feature","properties":{"name":"Yanbu al Bahr","country":"Saudi Arabia","region":"Al Madinah","pop":267590,"capital":"Populated place"},"geometry":{"type":"Point","coordinates":[38.049,24.094]}},{"type":"Feature","properties":{"name":"Qal at Bishah","country":"Saudi Arabia","region":"`Asir","pop":88291,"capital":"Populated place"},"geometry":{"type":"Point","coordinates":[42.599,20.009]}},{"type":"Feature","properties":{"name":"At Taif","country":"Saudi Arabia","region":"Makkah","pop":657282,"capital":"Populated place"},"geometry":{"type":"Point","coordinates":[40.382,21.262]}},{"type":"Feature","properties":{"name":"Najran","country":"Saudi Arabia","region":"Najran","pop":369609,"capital":"Admin-1 capital"},"geometry":{"type":"Point","coordinates":[44.132,17.507]}},{"type":"Feature","properties":{"name":"Al Hillah","country":"Saudi Arabia","region":"Ar Riyad","pop":594605,"capital":"Populated place"},"geometry":{"type":"Point","coordinates":[46.756,23.489]}},{"type":"Feature","properties":{"name":"Al Mubarraz","country":"Saudi Arabia","region":"Ash Sharqiyah","pop":298562,"capital":"Populated place"},"geometry":{"type":"Point","coordinates":[49.566,25.429]}},{"type":"Feature","properties":{"name":"Al-Qatif","country":"Saudi Arabia","region":"Ash Sharqiyah","pop":368892,"capital":"Populated place"},"geometry":{"type":"Point","coordinates":[50.012,26.52]}},{"type":"Feature","properties":{"name":"Az Zahran","country":"Saudi Arabia","region":"Ash Sharqiyah","pop":97446,"capital":"Populated place"},"geometry":{"type":"Point","coordinates":[50.158,26.291]}},{"type":"Feature","properties":{"name":"Sheikhu Pura","country":"Pakistan","region":"Punjab","pop":361303,"capital":"Populated place"},"geometry":{"type":"Point","coordinates":[73.99,31.72]}},{"type":"Feature","properties":{"name":"Sahiwal","country":"Pakistan","region":"Punjab","pop":235695,"capital":"Populated place"},"geometry":{"type":"Point","coordinates":[73.112,30.672]}},{"type":"Feature","properties":{"name":"Chiniot","country":"Pakistan","region":"Punjab","pop":201781,"capital":"Populated place"},"geometry":{"type":"Point","coordinates":[72.98,31.72]}},{"type":"Feature","properties":{"name":"Rahim Yar Khan","country":"Pakistan","region":"Punjab","pop":353203,"capital":"Populated place"},"geometry":{"type":"Point","coordinates":[70.295,28.42]}},{"type":"Feature","properties":{"name":"Lalitpur","country":"Nepal","region":"Bhaktapur","pop":337785,"capital":"Populated place"},"geometry":{"type":"Point","coordinates":[85.333,27.667]}},{"type":"Feature","properties":{"name":"Hetauda","country":"Nepal","region":"Narayani","pop":232334,"capital":"Populated place"},"geometry":{"type":"Point","coordinates":[85.033,27.417]}},{"type":"Feature","properties":{"name":"Al Ahmadi","country":"Kuwait","region":"Al Ahmadi","pop":68763,"capital":"Admin-1 capital"},"geometry":{"type":"Point","coordinates":[48.084,29.077]}},{"type":"Feature","properties":{"name":"Al Jahra","country":"Kuwait","region":"Al Jahrah","pop":194193,"capital":"Admin-1 capital"},"geometry":{"type":"Point","coordinates":[47.658,29.337]}},{"type":"Feature","properties":{"name":"Tengchong","country":"China","region":"Yunnan","pop":126058,"capital":"Populated place"},"geometry":{"type":"Point","coordinates":[98.467,25.033]}},{"type":"Feature","properties":{"name":"Chuxiong","country":"China","region":"Yunnan","pop":254370,"capital":"Populated place"},"geometry":{"type":"Point","coordinates":[101.546,25.036]}},{"type":"Feature","properties":{"name":"Simla","country":"India","region":"Himachal Pradesh","pop":173503,"capital":"Admin-1 capital"},"geometry":{"type":"Point","coordinates":[77.167,31.1]}},{"type":"Feature","properties":{"name":"Gurgaon","country":"India","region":"Haryana","pop":197340,"capital":"Populated place"},"geometry":{"type":"Point","coordinates":[77.02,28.45]}},{"type":"Feature","properties":{"name":"Sonipat","country":"India","region":"Haryana","pop":250521,"capital":"Populated place"},"geometry":{"type":"Point","coordinates":[77.02,29.0]}},{"type":"Feature","properties":{"name":"Rohtak","country":"India","region":"Haryana","pop":317245,"capital":"Populated place"},"geometry":{"type":"Point","coordinates":[76.58,28.9]}},{"type":"Feature","properties":{"name":"Hisar","country":"India","region":"Haryana","pop":544829,"capital":"Populated place"},"geometry":{"type":"Point","coordinates":[75.725,29.17]}},{"type":"Feature","properties":{"name":"Bhiwani","country":"India","region":"Haryana","pop":190855,"capital":"Populated place"},"geometry":{"type":"Point","coordinates":[76.125,28.81]}},{"type":"Feature","properties":{"name":"Ambala","country":"India","region":"Haryana","pop":146787,"capital":"Populated place"},"geometry":{"type":"Point","coordinates":[76.82,30.32]}},{"type":"Feature","properties":{"name":"Kalyan","country":"India","region":"Maharashtra","pop":1576614,"capital":"Populated place"},"geometry":{"type":"Point","coordinates":[73.16,19.25]}},{"type":"Feature","properties":{"name":"Bhusawal","country":"India","region":"Maharashtra","pop":183001,"capital":"Populated place"},"geometry":{"type":"Point","coordinates":[75.83,21.02]}},{"type":"Feature","properties":{"name":"Jorhat","country":"India","region":"Assam","pop":69033,"capital":"Populated place"},"geometry":{"type":"Point","coordinates":[94.217,26.75]}},{"type":"Feature","properties":{"name":"Marv Dasht","country":"Iran","region":"Fars","pop":125000,"capital":"Populated place"},"geometry":{"type":"Point","coordinates":[52.821,29.801]}},{"type":"Feature","properties":{"name":"Masjed Soleyman","country":"Iran","region":"Khuzestan","pop":153663,"capital":"Populated place"},"geometry":{"type":"Point","coordinates":[49.3,31.98]}},{"type":"Feature","properties":{"name":"Az Aubayr","country":"Iraq","region":"Al-Basrah","pop":262219,"capital":"Populated place"},"geometry":{"type":"Point","coordinates":[47.708,30.389]}},{"type":"Feature","properties":{"name":"Ad Diwaniyah","country":"Iraq","region":"Al-Qadisiyah","pop":358408,"capital":"Admin-1 capital"},"geometry":{"type":"Point","coordinates":[44.924,31.989]}},{"type":"Feature","properties":{"name":"Ash Shatrah","country":"Iraq","region":"Dhi-Qar","pop":161949,"capital":"Populated place"},"geometry":{"type":"Point","coordinates":[46.177,31.418]}},{"type":"Feature","properties":{"name":"Sirjan","country":"Iran","region":"Kerman","pop":175000,"capital":"Populated place"},"geometry":{"type":"Point","coordinates":[55.73,29.47]}},{"type":"Feature","properties":{"name":"Hoshiarpur","country":"India","region":"Punjab","pop":158142,"capital":"Populated place"},"geometry":{"type":"Point","coordinates":[75.98,31.52]}},{"type":"Feature","properties":{"name":"Ajmer","country":"India","region":"Rajasthan","pop":589985,"capital":"Populated place"},"geometry":{"type":"Point","coordinates":[74.64,26.45]}},{"type":"Feature","properties":{"name":"Hathras","country":"India","region":"Uttar Pradesh","pop":126882,"capital":"Populated place"},"geometry":{"type":"Point","coordinates":[78.05,27.6]}},{"type":"Feature","properties":{"name":"Sitapur","country":"India","region":"Uttar Pradesh","pop":164435,"capital":"Populated place"},"geometry":{"type":"Point","coordinates":[80.75,27.63]}},{"type":"Feature","properties":{"name":"Pilibhit","country":"India","region":"Uttar Pradesh","pop":131008,"capital":"Populated place"},"geometry":{"type":"Point","coordinates":[79.81,28.64]}},{"type":"Feature","properties":{"name":"Budaun","country":"India","region":"Uttar Pradesh","pop":161555,"capital":"Populated place"},"geometry":{"type":"Point","coordinates":[79.09,28.03]}},{"type":"Feature","properties":{"name":"Firozabad","country":"India","region":"Uttar Pradesh","pop":306409,"capital":"Populated place"},"geometry":{"type":"Point","coordinates":[78.395,27.15]}},{"type":"Feature","properties":{"name":"Mathura","country":"India","region":"Uttar Pradesh","pop":330511,"capital":"Populated place"},"geometry":{"type":"Point","coordinates":[77.67,27.5]}},{"type":"Feature","properties":{"name":"Bulandshahr","country":"India","region":"Uttar Pradesh","pop":198612,"capital":"Populated place"},"geometry":{"type":"Point","coordinates":[77.848,28.41]}},{"type":"Feature","properties":{"name":"Hapur","country":"India","region":"Uttar Pradesh","pop":242920,"capital":"Populated place"},"geometry":{"type":"Point","coordinates":[77.763,28.744]}},{"type":"Feature","properties":{"name":"Muzaffarnagar","country":"India","region":"Uttar Pradesh","pop":349706,"capital":"Populated place"},"geometry":{"type":"Point","coordinates":[77.695,29.485]}},{"type":"Feature","properties":{"name":"Gangtok","country":"India","region":"Sikkim","pop":77900,"capital":"Admin-1 capital"},"geometry":{"type":"Point","coordinates":[88.617,27.333]}},{"type":"Feature","properties":{"name":"Tangail","country":"Bangladesh","region":"Dhaka","pop":180144,"capital":"Populated place"},"geometry":{"type":"Point","coordinates":[89.92,24.25]}},{"type":"Feature","properties":{"name":"Sylhet","country":"Bangladesh","region":"Sylhet","pop":237000,"capital":"Admin-1 capital"},"geometry":{"type":"Point","coordinates":[91.874,24.904]}},{"type":"Feature","properties":{"name":"Jabal Ali","country":"United Arab Emirates","region":"Dubay","pop":80000,"capital":"Populated place"},"geometry":{"type":"Point","coordinates":[55.011,24.976]}},{"type":"Feature","properties":{"name":"Zab\u012bd","country":"Yemen","region":"Al Hudaydah","pop":152504,"capital":"Populated place"},"geometry":{"type":"Point","coordinates":[43.316,14.195]}},{"type":"Feature","properties":{"name":"Hajjah","country":"Yemen","region":"Hajjah","pop":208287,"capital":"Admin-1 capital"},"geometry":{"type":"Point","coordinates":[43.602,15.692]}},{"type":"Feature","properties":{"name":"Lahij","country":"Yemen","region":"Lahij","pop":66288,"capital":"Admin-1 capital"},"geometry":{"type":"Point","coordinates":[44.884,13.058]}},{"type":"Feature","properties":{"name":"Saywun","country":"Yemen","region":"Hadramawt","pop":68747,"capital":"Populated place"},"geometry":{"type":"Point","coordinates":[48.787,15.943]}},{"type":"Feature","properties":{"name":"Ras al Khaymah","country":"United Arab Emirates","region":"Ras Al Khaymah","pop":160849,"capital":"Admin-1 capital"},"geometry":{"type":"Point","coordinates":[55.943,25.792]}},{"type":"Feature","properties":{"name":"Al Fujayrah","country":"United Arab Emirates","region":"Fujayrah","pop":94163,"capital":"Admin-1 capital"},"geometry":{"type":"Point","coordinates":[56.337,25.123]}},{"type":"Feature","properties":{"name":"Al Ayn","country":"United Arab Emirates","region":"Abu Dhabi","pop":408733,"capital":"Populated place"},"geometry":{"type":"Point","coordinates":[55.74,24.23]}},{"type":"Feature","properties":{"name":"Chumphon","country":"Thailand","region":"Chumphon","pop":85686,"capital":"Admin-1 capital"},"geometry":{"type":"Point","coordinates":[99.187,10.513]}},{"type":"Feature","properties":{"name":"Trang","country":"Thailand","region":"Trang","pop":147820,"capital":"Admin-1 capital"},"geometry":{"type":"Point","coordinates":[99.608,7.563]}},{"type":"Feature","properties":{"name":"Yala","country":"Thailand","region":"Yala","pop":148140,"capital":"Admin-1 capital"},"geometry":{"type":"Point","coordinates":[101.285,6.55]}},{"type":"Feature","properties":{"name":"Chiang Rai","country":"Thailand","region":"Chiang Rai","pop":117127,"capital":"Admin-1 capital"},"geometry":{"type":"Point","coordinates":[99.826,19.912]}},{"type":"Feature","properties":{"name":"Lampang","country":"Thailand","region":"Lampang","pop":204081,"capital":"Admin-1 capital"},"geometry":{"type":"Point","coordinates":[99.481,18.292]}},{"type":"Feature","properties":{"name":"Nan","country":"Thailand","region":"Nan","pop":82483,"capital":"Admin-1 capital"},"geometry":{"type":"Point","coordinates":[100.771,18.787]}},{"type":"Feature","properties":{"name":"Phitsanulok","country":"Thailand","region":"Phitsanulok","pop":164017,"capital":"Admin-1 capital"},"geometry":{"type":"Point","coordinates":[100.273,16.828]}},{"type":"Feature","properties":{"name":"Uttaradit","country":"Thailand","region":"Uttaradit","pop":76630,"capital":"Admin-1 capital"},"geometry":{"type":"Point","coordinates":[100.097,17.632]}},{"type":"Feature","properties":{"name":"Kanchanaburi","country":"Thailand","region":"Kanchanaburi","pop":63699,"capital":"Admin-1 capital"},"geometry":{"type":"Point","coordinates":[99.522,14.017]}},{"type":"Feature","properties":{"name":"Lop Buri","country":"Thailand","region":"Lop Buri","pop":57761,"capital":"Admin-1 capital"},"geometry":{"type":"Point","coordinates":[100.619,14.804]}},{"type":"Feature","properties":{"name":"Prachin Buri","country":"Thailand","region":"Prachin Buri","pop":79757,"capital":"Admin-1 capital"},"geometry":{"type":"Point","coordinates":[101.377,14.057]}},{"type":"Feature","properties":{"name":"Ayutthaya","country":"Thailand","region":"Phra Nakhon Si Ayutthaya","pop":145615,"capital":"Admin-1 capital"},"geometry":{"type":"Point","coordinates":[100.568,14.359]}},{"type":"Feature","properties":{"name":"Pathum Thani","country":"Thailand","region":"Pathum Thani","pop":154412,"capital":"Admin-1 capital"},"geometry":{"type":"Point","coordinates":[100.533,14.017]}},{"type":"Feature","properties":{"name":"Saraburi","country":"Thailand","region":"Saraburi","pop":70769,"capital":"Admin-1 capital"},"geometry":{"type":"Point","coordinates":[100.88,14.53]}},{"type":"Feature","properties":{"name":"Nonthaburi","country":"Thailand","region":"Nonthaburi","pop":258550,"capital":"Admin-1 capital"},"geometry":{"type":"Point","coordinates":[100.483,13.834]}},{"type":"Feature","properties":{"name":"Phetchaburi","country":"Thailand","region":"Phetchaburi","pop":90497,"capital":"Admin-1 capital"},"geometry":{"type":"Point","coordinates":[99.941,13.113]}},{"type":"Feature","properties":{"name":"Hua Hin","country":"Thailand","region":"Prachuap Khiri Khan","pop":50456,"capital":"Populated place"},"geometry":{"type":"Point","coordinates":[99.944,12.57]}},{"type":"Feature","properties":{"name":"Ratchaburi","country":"Thailand","region":"Ratchaburi","pop":106996,"capital":"Admin-1 capital"},"geometry":{"type":"Point","coordinates":[99.822,13.542]}},{"type":"Feature","properties":{"name":"Samut Prakan","country":"Thailand","region":"Samut Prakan","pop":388920,"capital":"Admin-1 capital"},"geometry":{"type":"Point","coordinates":[100.611,13.607]}},{"type":"Feature","properties":{"name":"Si Racha","country":"Thailand","region":"Chon Buri","pop":178916,"capital":"Populated place"},"geometry":{"type":"Point","coordinates":[100.929,13.159]}},{"type":"Feature","properties":{"name":"Chon Buri","country":"Thailand","region":"Chon Buri","pop":226618,"capital":"Admin-1 capital"},"geometry":{"type":"Point","coordinates":[101.0,13.4]}},{"type":"Feature","properties":{"name":"Narathiwat","country":"Thailand","region":"Narathiwat","pop":68112,"capital":"Admin-1 capital"},"geometry":{"type":"Point","coordinates":[101.821,6.432]}},{"type":"Feature","properties":{"name":"Batticaloa","country":"Sri Lanka","region":"Batticaloa","pop":129222,"capital":"Populated place"},"geometry":{"type":"Point","coordinates":[81.7,7.717]}},{"type":"Feature","properties":{"name":"Kilinochchi","country":"Sri Lanka","region":"Kilinochchi","pop":103717,"capital":"Populated place"},"geometry":{"type":"Point","coordinates":[80.4,9.4]}},{"type":"Feature","properties":{"name":"Matara","country":"Sri Lanka","region":"Matara","pop":68244,"capital":"Populated place"},"geometry":{"type":"Point","coordinates":[80.543,5.949]}},{"type":"Feature","properties":{"name":"Moratuwa","country":"Sri Lanka","region":"Colombo","pop":200000,"capital":"Populated place"},"geometry":{"type":"Point","coordinates":[79.88,6.78]}},{"type":"Feature","properties":{"name":"Buraydah","country":"Saudi Arabia","region":"Al Quassim","pop":398581,"capital":"Admin-1 capital"},"geometry":{"type":"Point","coordinates":[43.963,26.366]}},{"type":"Feature","properties":{"name":"Hail","country":"Saudi Arabia","region":"Ha'il","pop":385257,"capital":"Admin-1 capital"},"geometry":{"type":"Point","coordinates":[41.7,27.524]}},{"type":"Feature","properties":{"name":"Arar","country":"Saudi Arabia","region":"Al Hudud ash Shamaliyah","pop":222016,"capital":"Admin-1 capital"},"geometry":{"type":"Point","coordinates":[41.021,30.99]}},{"type":"Feature","properties":{"name":"Rafha","country":"Saudi Arabia","region":"Al Hudud ash Shamaliyah","pop":64755,"capital":"Populated place"},"geometry":{"type":"Point","coordinates":[43.495,29.62]}},{"type":"Feature","properties":{"name":"Garissa","country":"Kenya","region":"North-Eastern","pop":67861,"capital":"Admin-1 capital"},"geometry":{"type":"Point","coordinates":[39.67,-0.44]}},{"type":"Feature","properties":{"name":"Al Kharj","country":"Saudi Arabia","region":"Ar Riyad","pop":298428,"capital":"Populated place"},"geometry":{"type":"Point","coordinates":[47.312,24.156]}},{"type":"Feature","properties":{"name":"Dammam","country":"Saudi Arabia","region":"Ash Sharqiyah","pop":2054710,"capital":"Admin-1 capital"},"geometry":{"type":"Point","coordinates":[50.098,26.43]}},{"type":"Feature","properties":{"name":"Hafar al Batin","country":"Saudi Arabia","region":"Ash Sharqiyah","pop":249194,"capital":"Populated place"},"geometry":{"type":"Point","coordinates":[45.96,28.434]}},{"type":"Feature","properties":{"name":"Al Jubayl","country":"Saudi Arabia","region":"Ash Sharqiyah","pop":237274,"capital":"Populated place"},"geometry":{"type":"Point","coordinates":[49.646,27.005]}},{"type":"Feature","properties":{"name":"Gwadar","country":"Pakistan","region":"Baluchistan","pop":51901,"capital":"Populated place"},"geometry":{"type":"Point","coordinates":[62.329,25.139]}},{"type":"Feature","properties":{"name":"Zhob","country":"Pakistan","region":"Baluchistan","pop":88356,"capital":"Populated place"},"geometry":{"type":"Point","coordinates":[69.439,31.349]}},{"type":"Feature","properties":{"name":"Kasur","country":"Pakistan","region":"Punjab","pop":290643,"capital":"Populated place"},"geometry":{"type":"Point","coordinates":[74.455,31.125]}},{"type":"Feature","properties":{"name":"Okara","country":"Pakistan","region":"Punjab","pop":223648,"capital":"Populated place"},"geometry":{"type":"Point","coordinates":[73.45,30.81]}},{"type":"Feature","properties":{"name":"Jhang","country":"Pakistan","region":"Punjab","pop":341210,"capital":"Populated place"},"geometry":{"type":"Point","coordinates":[72.325,31.28]}},{"type":"Feature","properties":{"name":"Dera Ghazi Khan","country":"Pakistan","region":"Punjab","pop":236093,"capital":"Populated place"},"geometry":{"type":"Point","coordinates":[70.635,30.06]}},{"type":"Feature","properties":{"name":"Sadiqabad","country":"Pakistan","region":"Punjab","pop":189876,"capital":"Populated place"},"geometry":{"type":"Point","coordinates":[70.13,28.301]}},{"type":"Feature","properties":{"name":"Nawabshah","country":"Pakistan","region":"Sind","pop":229504,"capital":"Populated place"},"geometry":{"type":"Point","coordinates":[68.4,26.245]}},{"type":"Feature","properties":{"name":"Dera Ismail Khan","country":"Pakistan","region":"N.W.F.P.","pop":101616,"capital":"Populated place"},"geometry":{"type":"Point","coordinates":[70.899,31.829]}},{"type":"Feature","properties":{"name":"Nepalganj","country":"Nepal","region":"Banke","pop":64400,"capital":"Admin-1 capital"},"geometry":{"type":"Point","coordinates":[81.617,28.05]}},{"type":"Feature","properties":{"name":"Birganj","country":"Nepal","region":"Narayani","pop":133238,"capital":"Populated place"},"geometry":{"type":"Point","coordinates":[84.867,27.0]}},{"type":"Feature","properties":{"name":"Biratnagar","country":"Nepal","region":"Bhojpur","pop":182324,"capital":"Admin-1 capital"},"geometry":{"type":"Point","coordinates":[87.283,26.484]}},{"type":"Feature","properties":{"name":"Teluk Intan","country":"Malaysia","region":"Perak","pop":101659,"capital":"Populated place"},"geometry":{"type":"Point","coordinates":[101.031,4.012]}},{"type":"Feature","properties":{"name":"Butterworth","country":"Malaysia","region":"Pulau Pinang","pop":821652,"capital":"Populated place"},"geometry":{"type":"Point","coordinates":[100.4,5.417]}},{"type":"Feature","properties":{"name":"Sungai Petani","country":"Malaysia","region":"Kedah","pop":358499,"capital":"Populated place"},"geometry":{"type":"Point","coordinates":[100.479,5.65]}},{"type":"Feature","properties":{"name":"Alor Setar","country":"Malaysia","region":"Kedah","pop":336475,"capital":"Admin-1 capital"},"geometry":{"type":"Point","coordinates":[100.373,6.113]}},{"type":"Feature","properties":{"name":"Seremban","country":"Malaysia","region":"Negeri Sembilan","pop":372917,"capital":"Admin-1 capital"},"geometry":{"type":"Point","coordinates":[101.94,2.71]}},{"type":"Feature","properties":{"name":"Kilifi","country":"Kenya","region":"Coast","pop":80339,"capital":"Populated place"},"geometry":{"type":"Point","coordinates":[39.85,-3.61]}},{"type":"Feature","properties":{"name":"Mandera","country":"Somalia","region":"Gedo","pop":52885,"capital":"Populated place"},"geometry":{"type":"Point","coordinates":[41.86,3.94]}},{"type":"Feature","properties":{"name":"Jawhar","country":"Somalia","region":"Shabeellaha Dhexe","pop":111308,"capital":"Admin-1 capital"},"geometry":{"type":"Point","coordinates":[45.517,2.767]}},{"type":"Feature","properties":{"name":"Ibri","country":"Oman","region":"Al Dhahira","pop":101640,"capital":"Populated place"},"geometry":{"type":"Point","coordinates":[56.517,23.225]}},{"type":"Feature","properties":{"name":"Binjai","country":"Indonesia","region":"Sumatera Utara","pop":564979,"capital":"Populated place"},"geometry":{"type":"Point","coordinates":[98.5,3.62]}},{"type":"Feature","properties":{"name":"Padangsidempuan","country":"Indonesia","region":"Sumatera Utara","pop":266882,"capital":"Populated place"},"geometry":{"type":"Point","coordinates":[99.273,1.389]}},{"type":"Feature","properties":{"name":"Tebingtinggi","country":"Indonesia","region":"Sumatera Utara","pop":268043,"capital":"Populated place"},"geometry":{"type":"Point","coordinates":[99.13,3.33]}},{"type":"Feature","properties":{"name":"Bukittinggi","country":"Indonesia","region":"Sumatera Barat","pop":506964,"capital":"Populated place"},"geometry":{"type":"Point","coordinates":[100.361,-0.303]}},{"type":"Feature","properties":{"name":"Sawahlunto","country":"Indonesia","region":"Sumatera Barat","pop":50354,"capital":"Populated place"},"geometry":{"type":"Point","coordinates":[100.783,-0.666]}},{"type":"Feature","properties":{"name":"Langsa","country":"Indonesia","region":"Aceh","pop":117256,"capital":"Populated place"},"geometry":{"type":"Point","coordinates":[97.966,4.674]}},{"type":"Feature","properties":{"name":"Massawa","country":"Eritrea","region":"Debub","pop":142564,"capital":"Admin-1 capital"},"geometry":{"type":"Point","coordinates":[39.45,15.61]}},{"type":"Feature","properties":{"name":"Keren","country":"Eritrea","region":"Semenawi Keyih Bahri","pop":150000,"capital":"Admin-1 capital"},"geometry":{"type":"Point","coordinates":[38.45,15.68]}},{"type":"Feature","properties":{"name":"Mendefera","country":"Eritrea","region":"Maekel","pop":257390,"capital":"Admin-1 capital"},"geometry":{"type":"Point","coordinates":[38.816,14.886]}},{"type":"Feature","properties":{"name":"Rongzhag","country":"China","region":"Sichuan","pop":70000,"capital":"Populated place"},"geometry":{"type":"Point","coordinates":[101.917,30.95]}},{"type":"Feature","properties":{"name":"Simao","country":"China","region":"Yunnan","pop":162725,"capital":"Populated place"},"geometry":{"type":"Point","coordinates":[100.978,22.781]}},{"type":"Feature","properties":{"name":"Sungaipenuh","country":"Indonesia","region":"Jambi","pop":95913,"capital":"Populated place"},"geometry":{"type":"Point","coordinates":[101.396,-2.063]}},{"type":"Feature","properties":{"name":"Sirsa","country":"India","region":"Haryana","pop":181639,"capital":"Populated place"},"geometry":{"type":"Point","coordinates":[75.03,29.49]}},{"type":"Feature","properties":{"name":"Panipat","country":"India","region":"Haryana","pop":292808,"capital":"Populated place"},"geometry":{"type":"Point","coordinates":[76.97,29.4]}},{"type":"Feature","properties":{"name":"Karnal","country":"India","region":"Haryana","pop":225049,"capital":"Populated place"},"geometry":{"type":"Point","coordinates":[76.97,29.68]}},{"type":"Feature","properties":{"name":"Proddatur","country":"India","region":"Andhra Pradesh","pop":197451,"capital":"Populated place"},"geometry":{"type":"Point","coordinates":[78.57,14.75]}},{"type":"Feature","properties":{"name":"Nandyal","country":"India","region":"Andhra Pradesh","pop":188654,"capital":"Populated place"},"geometry":{"type":"Point","coordinates":[78.48,15.52]}},{"type":"Feature","properties":{"name":"Hindupur","country":"India","region":"Andhra Pradesh","pop":168312,"capital":"Populated place"},"geometry":{"type":"Point","coordinates":[77.49,13.78]}},{"type":"Feature","properties":{"name":"Tirupati","country":"India","region":"Andhra Pradesh","pop":287035,"capital":"Populated place"},"geometry":{"type":"Point","coordinates":[79.42,13.65]}},{"type":"Feature","properties":{"name":"Ongole","country":"India","region":"Andhra Pradesh","pop":202860,"capital":"Populated place"},"geometry":{"type":"Point","coordinates":[80.05,15.56]}},{"type":"Feature","properties":{"name":"Vizianagaram","country":"India","region":"Andhra Pradesh","pop":179358,"capital":"Populated place"},"geometry":{"type":"Point","coordinates":[83.5,18.12]}},{"type":"Feature","properties":{"name":"Rajahmundry","country":"India","region":"Andhra Pradesh","pop":304804,"capital":"Populated place"},"geometry":{"type":"Point","coordinates":[81.79,17.03]}},{"type":"Feature","properties":{"name":"Machilipatnam","country":"India","region":"Andhra Pradesh","pop":192827,"capital":"Populated place"},"geometry":{"type":"Point","coordinates":[81.18,16.2]}},{"type":"Feature","properties":{"name":"Khammam","country":"India","region":"Telangana","pop":290839,"capital":"Populated place"},"geometry":{"type":"Point","coordinates":[80.16,17.28]}},{"type":"Feature","properties":{"name":"Chirala","country":"India","region":"Andhra Pradesh","pop":253000,"capital":"Populated place"},"geometry":{"type":"Point","coordinates":[80.34,15.86]}},{"type":"Feature","properties":{"name":"Karimnagar","country":"India","region":"Telangana","pop":288251,"capital":"Populated place"},"geometry":{"type":"Point","coordinates":[79.11,18.46]}},{"type":"Feature","properties":{"name":"Nizamabad","country":"India","region":"Telangana","pop":388505,"capital":"Populated place"},"geometry":{"type":"Point","coordinates":[78.1,18.67]}},{"type":"Feature","properties":{"name":"Kollam","country":"India","region":"Kerala","pop":394163,"capital":"Populated place"},"geometry":{"type":"Point","coordinates":[76.57,8.9]}},{"type":"Feature","properties":{"name":"Alappuzha","country":"India","region":"Kerala","pop":176783,"capital":"Populated place"},"geometry":{"type":"Point","coordinates":[76.37,9.5]}},{"type":"Feature","properties":{"name":"Puri","country":"India","region":"Orissa","pop":201026,"capital":"Populated place"},"geometry":{"type":"Point","coordinates":[85.9,19.82]}},{"type":"Feature","properties":{"name":"Sambalpur","country":"India","region":"Orissa","pop":310852,"capital":"Populated place"},"geometry":{"type":"Point","coordinates":[83.97,21.47]}},{"type":"Feature","properties":{"name":"Raurkela","country":"India","region":"Orissa","pop":625831,"capital":"Populated place"},"geometry":{"type":"Point","coordinates":[84.83,22.23]}},{"type":"Feature","properties":{"name":"Mandya","country":"India","region":"Karnataka","pop":285034,"capital":"Populated place"},"geometry":{"type":"Point","coordinates":[76.92,12.57]}},{"type":"Feature","properties":{"name":"Kolar","country":"India","region":"Karnataka","pop":144625,"capital":"Populated place"},"geometry":{"type":"Point","coordinates":[78.133,13.134]}},{"type":"Feature","properties":{"name":"Shivamogga","country":"India","region":"Karnataka","pop":654055,"capital":"Populated place"},"geometry":{"type":"Point","coordinates":[75.56,13.93]}},{"type":"Feature","properties":{"name":"Raichur","country":"India","region":"Karnataka","pop":255240,"capital":"Populated place"},"geometry":{"type":"Point","coordinates":[77.355,16.21]}},{"type":"Feature","properties":{"name":"Hosapete","country":"India","region":"Karnataka","pop":286007,"capital":"Populated place"},"geometry":{"type":"Point","coordinates":[76.375,15.28]}},{"type":"Feature","properties":{"name":"Bidar","country":"India","region":"Karnataka","pop":300136,"capital":"Populated place"},"geometry":{"type":"Point","coordinates":[77.518,17.923]}},{"type":"Feature","properties":{"name":"Sangli","country":"India","region":"Maharashtra","pop":601214,"capital":"Populated place"},"geometry":{"type":"Point","coordinates":[74.575,16.86]}},{"type":"Feature","properties":{"name":"Parbhani","country":"India","region":"Maharashtra","pop":378326,"capital":"Populated place"},"geometry":{"type":"Point","coordinates":[76.76,19.27]}},{"type":"Feature","properties":{"name":"Malegaon","country":"India","region":"Maharashtra","pop":690844,"capital":"Populated place"},"geometry":{"type":"Point","coordinates":[74.525,20.56]}},{"type":"Feature","properties":{"name":"Port Blair","country":"India","region":"Andaman and Nicobar","pop":127562,"capital":"Admin-1 capital"},"geometry":{"type":"Point","coordinates":[92.736,11.667]}},{"type":"Feature","properties":{"name":"Tezpur","country":"India","region":"Assam","pop":58851,"capital":"Populated place"},"geometry":{"type":"Point","coordinates":[92.8,26.634]}},{"type":"Feature","properties":{"name":"Silchar","country":"India","region":"Assam","pop":152393,"capital":"Populated place"},"geometry":{"type":"Point","coordinates":[92.79,24.79]}},{"type":"Feature","properties":{"name":"Kohima","country":"India","region":"Nagaland","pop":92113,"capital":"Admin-1 capital"},"geometry":{"type":"Point","coordinates":[94.117,25.667]}},{"type":"Feature","properties":{"name":"Shillong","country":"India","region":"Meghalaya","pop":375527,"capital":"Admin-1 capital"},"geometry":{"type":"Point","coordinates":[91.88,25.57]}},{"type":"Feature","properties":{"name":"Debre Birhan","country":"Ethiopia","region":"Amhara","pop":65231,"capital":"Populated place"},"geometry":{"type":"Point","coordinates":[39.53,9.68]}},{"type":"Feature","properties":{"name":"Adigrat","country":"Ethiopia","region":"Tigray","pop":104021,"capital":"Populated place"},"geometry":{"type":"Point","coordinates":[39.47,14.28]}},{"type":"Feature","properties":{"name":"Asela","country":"Ethiopia","region":"Addis Ababa","pop":82240,"capital":"Admin-1 capital"},"geometry":{"type":"Point","coordinates":[39.14,7.95]}},{"type":"Feature","properties":{"name":"Shashemene","country":"Ethiopia","region":"Addis Ababa","pop":114350,"capital":"Populated place"},"geometry":{"type":"Point","coordinates":[38.59,7.2]}},{"type":"Feature","properties":{"name":"Jijiga","country":"Ethiopia","region":"Somali","pop":56821,"capital":"Admin-1 capital"},"geometry":{"type":"Point","coordinates":[42.79,9.35]}},{"type":"Feature","properties":{"name":"Fasa","country":"Iran","region":"Fars","pop":124458,"capital":"Populated place"},"geometry":{"type":"Point","coordinates":[53.671,28.972]}},{"type":"Feature","properties":{"name":"Behbehan","country":"Iran","region":"Khuzestan","pop":85707,"capital":"Populated place"},"geometry":{"type":"Point","coordinates":[50.261,30.582]}},{"type":"Feature","properties":{"name":"As Samawah","country":"Iraq","region":"Al-Muthannia","pop":174978,"capital":"Admin-1 capital"},"geometry":{"type":"Point","coordinates":[45.28,31.31]}},{"type":"Feature","properties":{"name":"An Nasiriyah","country":"Iraq","region":"Dhi-Qar","pop":451547,"capital":"Admin-1 capital"},"geometry":{"type":"Point","coordinates":[46.268,31.043]}},{"type":"Feature","properties":{"name":"Al Amarah","country":"Iraq","region":"Maysan","pop":345007,"capital":"Admin-1 capital"},"geometry":{"type":"Point","coordinates":[47.151,31.842]}},{"type":"Feature","properties":{"name":"Chabahar","country":"Iran","region":"Sistan and Baluchestan","pop":65801,"capital":"Populated place"},"geometry":{"type":"Point","coordinates":[60.63,25.3]}},{"type":"Feature","properties":{"name":"Abohar","country":"India","region":"Punjab","pop":130603,"capital":"Populated place"},"geometry":{"type":"Point","coordinates":[74.29,30.12]}},{"type":"Feature","properties":{"name":"Patiala","country":"India","region":"Punjab","pop":329224,"capital":"Populated place"},"geometry":{"type":"Point","coordinates":[76.385,30.32]}},{"type":"Feature","properties":{"name":"Bhilwara","country":"India","region":"Rajasthan","pop":389911,"capital":"Populated place"},"geometry":{"type":"Point","coordinates":[74.635,25.35]}},{"type":"Feature","properties":{"name":"Pali","country":"India","region":"Rajasthan","pop":210103,"capital":"Populated place"},"geometry":{"type":"Point","coordinates":[73.33,25.79]}},{"type":"Feature","properties":{"name":"Tonk","country":"India","region":"Rajasthan","pop":181734,"capital":"Populated place"},"geometry":{"type":"Point","coordinates":[75.79,26.15]}},{"type":"Feature","properties":{"name":"Sikar","country":"India","region":"Rajasthan","pop":400000,"capital":"Populated place"},"geometry":{"type":"Point","coordinates":[75.14,27.61]}},{"type":"Feature","properties":{"name":"Bikaner","country":"India","region":"Rajasthan","pop":576015,"capital":"Populated place"},"geometry":{"type":"Point","coordinates":[73.33,28.03]}},{"type":"Feature","properties":{"name":"Bharatpur","country":"India","region":"Rajasthan","pop":229384,"capital":"Populated place"},"geometry":{"type":"Point","coordinates":[77.5,27.25]}},{"type":"Feature","properties":{"name":"Alwar","country":"India","region":"Rajasthan","pop":283228,"capital":"Populated place"},"geometry":{"type":"Point","coordinates":[76.605,27.545]}},{"type":"Feature","properties":{"name":"Fatehpur","country":"India","region":"Uttar Pradesh","pop":166480,"capital":"Populated place"},"geometry":{"type":"Point","coordinates":[80.8,25.88]}},{"type":"Feature","properties":{"name":"Faizabad","country":"India","region":"Uttar Pradesh","pop":153047,"capital":"Populated place"},"geometry":{"type":"Point","coordinates":[82.17,26.75]}},{"type":"Feature","properties":{"name":"Bahraich","country":"India","region":"Uttar Pradesh","pop":182218,"capital":"Populated place"},"geometry":{"type":"Point","coordinates":[81.67,27.62]}},{"type":"Feature","properties":{"name":"Mirzapur","country":"India","region":"Uttar Pradesh","pop":245817,"capital":"Populated place"},"geometry":{"type":"Point","coordinates":[82.57,25.145]}},{"type":"Feature","properties":{"name":"Jhansi","country":"India","region":"Uttar Pradesh","pop":826494,"capital":"Populated place"},"geometry":{"type":"Point","coordinates":[78.557,25.453]}},{"type":"Feature","properties":{"name":"Shahjahanpur","country":"India","region":"Uttar Pradesh","pop":320434,"capital":"Populated place"},"geometry":{"type":"Point","coordinates":[79.905,27.88]}},{"type":"Feature","properties":{"name":"Rampur","country":"India","region":"Uttar Pradesh","pop":296418,"capital":"Populated place"},"geometry":{"type":"Point","coordinates":[79.025,28.815]}},{"type":"Feature","properties":{"name":"Bareilly","country":"India","region":"Uttar Pradesh","pop":817000,"capital":"Populated place"},"geometry":{"type":"Point","coordinates":[79.418,28.347]}},{"type":"Feature","properties":{"name":"Etawah","country":"India","region":"Uttar Pradesh","pop":257448,"capital":"Populated place"},"geometry":{"type":"Point","coordinates":[79.015,26.785]}},{"type":"Feature","properties":{"name":"Dehra Dun","country":"India","region":"Uttaranchal","pop":714223,"capital":"Admin-1 capital"},"geometry":{"type":"Point","coordinates":[78.05,30.32]}},{"type":"Feature","properties":{"name":"Haora","country":"India","region":"West Bengal","pop":4841638,"capital":"Populated place"},"geometry":{"type":"Point","coordinates":[88.33,22.58]}},{"type":"Feature","properties":{"name":"Alipur Duar","country":"India","region":"West Bengal","pop":127342,"capital":"Populated place"},"geometry":{"type":"Point","coordinates":[89.567,26.484]}},{"type":"Feature","properties":{"name":"Haldia","country":"India","region":"West Bengal","pop":200762,"capital":"Populated place"},"geometry":{"type":"Point","coordinates":[88.058,22.026]}},{"type":"Feature","properties":{"name":"Bhatpara","country":"India","region":"West Bengal","pop":483129,"capital":"Populated place"},"geometry":{"type":"Point","coordinates":[88.52,22.85]}},{"type":"Feature","properties":{"name":"Medinipur","country":"India","region":"West Bengal","pop":169127,"capital":"Populated place"},"geometry":{"type":"Point","coordinates":[87.15,22.33]}},{"type":"Feature","properties":{"name":"Siliguri","country":"India","region":"West Bengal","pop":515574,"capital":"Populated place"},"geometry":{"type":"Point","coordinates":[88.455,26.72]}},{"type":"Feature","properties":{"name":"Purnia","country":"India","region":"Bihar","pop":198453,"capital":"Populated place"},"geometry":{"type":"Point","coordinates":[87.48,25.785]}},{"type":"Feature","properties":{"name":"Muzaffarpur","country":"India","region":"Bihar","pop":333200,"capital":"Populated place"},"geometry":{"type":"Point","coordinates":[85.38,26.12]}},{"type":"Feature","properties":{"name":"Aurangabad","country":"India","region":"Bihar","pop":95929,"capital":"Populated place"},"geometry":{"type":"Point","coordinates":[84.38,24.77]}},{"type":"Feature","properties":{"name":"Bilaspur","country":"India","region":"Chhattisgarh","pop":543454,"capital":"Populated place"},"geometry":{"type":"Point","coordinates":[82.16,22.09]}},{"type":"Feature","properties":{"name":"Burhanpur","country":"India","region":"Madhya Pradesh","pop":197233,"capital":"Populated place"},"geometry":{"type":"Point","coordinates":[76.13,21.3]}},{"type":"Feature","properties":{"name":"Ujjain","country":"India","region":"Madhya Pradesh","pop":513350,"capital":"Populated place"},"geometry":{"type":"Point","coordinates":[75.79,23.19]}},{"type":"Feature","properties":{"name":"Ratlam","country":"India","region":"Madhya Pradesh","pop":307229,"capital":"Populated place"},"geometry":{"type":"Point","coordinates":[75.03,23.35]}},{"type":"Feature","properties":{"name":"Sagar","country":"India","region":"Madhya Pradesh","pop":328240,"capital":"Populated place"},"geometry":{"type":"Point","coordinates":[78.75,23.85]}},{"type":"Feature","properties":{"name":"Vellore","country":"India","region":"Tamil Nadu","pop":177081,"capital":"Populated place"},"geometry":{"type":"Point","coordinates":[79.15,12.92]}},{"type":"Feature","properties":{"name":"Tiruvannamalai","country":"India","region":"Tamil Nadu","pop":138243,"capital":"Populated place"},"geometry":{"type":"Point","coordinates":[79.1,12.26]}},{"type":"Feature","properties":{"name":"Rajapalaiyam","country":"India","region":"Tamil Nadu","pop":369991,"capital":"Populated place"},"geometry":{"type":"Point","coordinates":[77.58,9.42]}},{"type":"Feature","properties":{"name":"Cuddalore","country":"India","region":"Tamil Nadu","pop":158569,"capital":"Populated place"},"geometry":{"type":"Point","coordinates":[79.77,11.72]}},{"type":"Feature","properties":{"name":"Karur","country":"India","region":"Tamil Nadu","pop":76915,"capital":"Populated place"},"geometry":{"type":"Point","coordinates":[78.083,10.95]}},{"type":"Feature","properties":{"name":"Kanchipuram","country":"India","region":"Tamil Nadu","pop":155029,"capital":"Populated place"},"geometry":{"type":"Point","coordinates":[79.717,12.834]}},{"type":"Feature","properties":{"name":"Tirunelveli","country":"India","region":"Tamil Nadu","pop":542200,"capital":"Populated place"},"geometry":{"type":"Point","coordinates":[77.69,8.73]}},{"type":"Feature","properties":{"name":"Nagercoil","country":"India","region":"Tamil Nadu","pop":224329,"capital":"Populated place"},"geometry":{"type":"Point","coordinates":[77.43,8.18]}},{"type":"Feature","properties":{"name":"Thanjavur","country":"India","region":"Tamil Nadu","pop":219571,"capital":"Populated place"},"geometry":{"type":"Point","coordinates":[79.15,10.77]}},{"type":"Feature","properties":{"name":"Kumbakonam","country":"India","region":"Tamil Nadu","pop":139264,"capital":"Populated place"},"geometry":{"type":"Point","coordinates":[79.4,10.98]}},{"type":"Feature","properties":{"name":"Valparai","country":"India","region":"Tamil Nadu","pop":114308,"capital":"Populated place"},"geometry":{"type":"Point","coordinates":[76.97,10.32]}},{"type":"Feature","properties":{"name":"Tiruppur","country":"India","region":"Tamil Nadu","pop":650000,"capital":"Populated place"},"geometry":{"type":"Point","coordinates":[77.33,11.08]}},{"type":"Feature","properties":{"name":"Navsari","country":"India","region":"Dadra and Nagar Haveli","pop":163000,"capital":"Populated place"},"geometry":{"type":"Point","coordinates":[72.92,20.85]}},{"type":"Feature","properties":{"name":"Bhuj","country":"India","region":"Dadra and Nagar Haveli","pop":289429,"capital":"Populated place"},"geometry":{"type":"Point","coordinates":[69.81,23.25]}},{"type":"Feature","properties":{"name":"Bhavnagar","country":"India","region":"Dadra and Nagar Haveli","pop":554978,"capital":"Populated place"},"geometry":{"type":"Point","coordinates":[72.13,21.778]}},{"type":"Feature","properties":{"name":"Gandhinagar","country":"India","region":"Dadra and Nagar Haveli","pop":195891,"capital":"Admin-1 capital"},"geometry":{"type":"Point","coordinates":[72.64,23.3]}},{"type":"Feature","properties":{"name":"Aizawl","country":"India","region":"Mizoram","pop":283021,"capital":"Admin-1 capital"},"geometry":{"type":"Point","coordinates":[92.72,23.71]}},{"type":"Feature","properties":{"name":"Agartala","country":"India","region":"Tripura","pop":203264,"capital":"Admin-1 capital"},"geometry":{"type":"Point","coordinates":[91.28,23.835]}},{"type":"Feature","properties":{"name":"Mymensingh","country":"Bangladesh","region":"Dhaka","pop":330126,"capital":"Populated place"},"geometry":{"type":"Point","coordinates":[90.38,24.75]}},{"type":"Feature","properties":{"name":"Jamalpur","country":"Bangladesh","region":"Dhaka","pop":167900,"capital":"Admin-1 capital"},"geometry":{"type":"Point","coordinates":[89.95,24.9]}},{"type":"Feature","properties":{"name":"Narayanganj","country":"Bangladesh","region":"Dhaka","pop":223622,"capital":"Populated place"},"geometry":{"type":"Point","coordinates":[90.5,23.62]}},{"type":"Feature","properties":{"name":"Jashore","country":"Bangladesh","region":"Khulna","pop":243987,"capital":"Populated place"},"geometry":{"type":"Point","coordinates":[89.2,23.17]}},{"type":"Feature","properties":{"name":"Barishal","country":"Bangladesh","region":"Barisal","pop":202242,"capital":"Admin-1 capital"},"geometry":{"type":"Point","coordinates":[90.375,22.7]}},{"type":"Feature","properties":{"name":"Comilla","country":"Bangladesh","region":"Chittagong","pop":389411,"capital":"Populated place"},"geometry":{"type":"Point","coordinates":[91.17,23.47]}},{"type":"Feature","properties":{"name":"Pabna","country":"Bangladesh","region":"Rajshahi","pop":137888,"capital":"Populated place"},"geometry":{"type":"Point","coordinates":[89.25,24.0]}},{"type":"Feature","properties":{"name":"Nawabganj","country":"Bangladesh","region":"Rajshahi","pop":142361,"capital":"Populated place"},"geometry":{"type":"Point","coordinates":[88.35,24.58]}},{"type":"Feature","properties":{"name":"Saidpur","country":"Bangladesh","region":"Rajshahi","pop":232209,"capital":"Populated place"},"geometry":{"type":"Point","coordinates":[89.0,25.8]}},{"type":"Feature","properties":{"name":"Myingyan","country":"Myanmar","region":"Mandalay","pop":163812,"capital":"Populated place"},"geometry":{"type":"Point","coordinates":[95.391,21.462]}},{"type":"Feature","properties":{"name":"Letpadan","country":"Myanmar","region":"Bago","pop":176571,"capital":"Populated place"},"geometry":{"type":"Point","coordinates":[95.741,17.782]}},{"type":"Feature","properties":{"name":"Taungoo","country":"Myanmar","region":"Bago","pop":106945,"capital":"Populated place"},"geometry":{"type":"Point","coordinates":[96.418,18.948]}},{"type":"Feature","properties":{"name":"Thongwa","country":"Myanmar","region":"Yangon","pop":52496,"capital":"Populated place"},"geometry":{"type":"Point","coordinates":[96.519,16.755]}},{"type":"Feature","properties":{"name":"Mudon","country":"Myanmar","region":"Mon","pop":152300,"capital":"Populated place"},"geometry":{"type":"Point","coordinates":[97.721,16.262]}},{"type":"Feature","properties":{"name":"Ye","country":"Myanmar","region":"Mon","pop":50798,"capital":"Populated place"},"geometry":{"type":"Point","coordinates":[97.868,15.253]}},{"type":"Feature","properties":{"name":"Mawlamyine","country":"Myanmar","region":"Mon","pop":438861,"capital":"Admin-1 capital"},"geometry":{"type":"Point","coordinates":[97.67,16.5]}},{"type":"Feature","properties":{"name":"Phyarpon","country":"Myanmar","region":"Ayeyarwady","pop":65601,"capital":"Populated place"},"geometry":{"type":"Point","coordinates":[95.683,16.293]}},{"type":"Feature","properties":{"name":"Hinthada","country":"Myanmar","region":"Ayeyarwady","pop":180728,"capital":"Populated place"},"geometry":{"type":"Point","coordinates":[95.468,17.648]}},{"type":"Feature","properties":{"name":"Pathein","country":"Myanmar","region":"Ayeyarwady","pop":237089,"capital":"Admin-1 capital"},"geometry":{"type":"Point","coordinates":[94.75,16.77]}},{"type":"Feature","properties":{"name":"Allanmyo","country":"Myanmar","region":"Magway","pop":57897,"capital":"Populated place"},"geometry":{"type":"Point","coordinates":[95.228,19.378]}},{"type":"Feature","properties":{"name":"Yaynangyoung","country":"Myanmar","region":"Magway","pop":110553,"capital":"Populated place"},"geometry":{"type":"Point","coordinates":[94.881,20.461]}},{"type":"Feature","properties":{"name":"Chauk","country":"Myanmar","region":"Magway","pop":90870,"capital":"Populated place"},"geometry":{"type":"Point","coordinates":[94.823,20.908]}},{"type":"Feature","properties":{"name":"Pakokku","country":"Myanmar","region":"Magway","pop":126938,"capital":"Populated place"},"geometry":{"type":"Point","coordinates":[95.087,21.332]}},{"type":"Feature","properties":{"name":"Dawei","country":"Myanmar","region":"Tanintharyi","pop":146212,"capital":"Admin-1 capital"},"geometry":{"type":"Point","coordinates":[98.195,14.098]}},{"type":"Feature","properties":{"name":"Shwebo","country":"Myanmar","region":"Sagaing","pop":88914,"capital":"Populated place"},"geometry":{"type":"Point","coordinates":[95.693,22.578]}},{"type":"Feature","properties":{"name":"Pokhara","country":"Nepal","region":"Gorkha","pop":200000,"capital":"Admin-1 capital"},"geometry":{"type":"Point","coordinates":[83.972,28.264]}},{"type":"Feature","properties":{"name":"Boorama","country":"Somaliland","region":null,"pop":67664,"capital":"Populated place"},"geometry":{"type":"Point","coordinates":[43.18,9.94]}},{"type":"Feature","properties":{"name":"Burco","country":"Somaliland","region":null,"pop":106593,"capital":"Admin-1 capital"},"geometry":{"type":"Point","coordinates":[45.54,9.52]}},{"type":"Feature","properties":{"name":"Galle","country":"Sri Lanka","region":"Galle","pop":99478,"capital":"Admin-1 capital"},"geometry":{"type":"Point","coordinates":[80.24,6.03]}},{"type":"Feature","properties":{"name":"Hofuf","country":"Saudi Arabia","region":"Ash Sharqiyah","pop":637389,"capital":"Populated place"},"geometry":{"type":"Point","coordinates":[49.586,25.349]}},{"type":"Feature","properties":{"name":"Chaman","country":"Pakistan","region":"Baluchistan","pop":88568,"capital":"Populated place"},"geometry":{"type":"Point","coordinates":[66.446,30.925]}},{"type":"Feature","properties":{"name":"Turbat","country":"Pakistan","region":"Baluchistan","pop":147791,"capital":"Populated place"},"geometry":{"type":"Point","coordinates":[63.072,25.992]}},{"type":"Feature","properties":{"name":"Faisalabad","country":"Pakistan","region":"Punjab","pop":2617000,"capital":"Populated place"},"geometry":{"type":"Point","coordinates":[73.108,31.412]}},{"type":"Feature","properties":{"name":"Bahawalpur","country":"Pakistan","region":"Punjab","pop":552607,"capital":"Populated place"},"geometry":{"type":"Point","coordinates":[71.675,29.39]}},{"type":"Feature","properties":{"name":"Mirpur Khas","country":"Pakistan","region":"Sind","pop":356435,"capital":"Populated place"},"geometry":{"type":"Point","coordinates":[69.012,25.532]}},{"type":"Feature","properties":{"name":"Sukkur","country":"Pakistan","region":"Sind","pop":417767,"capital":"Populated place"},"geometry":{"type":"Point","coordinates":[68.849,27.714]}},{"type":"Feature","properties":{"name":"Kelang","country":"Malaysia","region":"Selangor","pop":956000,"capital":"Admin-1 capital"},"geometry":{"type":"Point","coordinates":[101.548,3.022]}},{"type":"Feature","properties":{"name":"Salalah","country":"Oman","region":"Dhofar","pop":203877,"capital":"Populated place"},"geometry":{"type":"Point","coordinates":[54.085,17.025]}},{"type":"Feature","properties":{"name":"Suhar","country":"Oman","region":"Al Batnah","pop":151349,"capital":"Populated place"},"geometry":{"type":"Point","coordinates":[56.734,24.362]}},{"type":"Feature","properties":{"name":"Seeb","country":"Oman","region":"Muscat","pop":237816,"capital":"Populated place"},"geometry":{"type":"Point","coordinates":[58.183,23.68]}},{"type":"Feature","properties":{"name":"Chamdo","country":"China","region":"Xizang","pop":100000,"capital":"Populated place"},"geometry":{"type":"Point","coordinates":[97.233,31.167]}},{"type":"Feature","properties":{"name":"Panzhihua","country":"China","region":"Sichuan","pop":461513,"capital":"Populated place"},"geometry":{"type":"Point","coordinates":[101.73,26.55]}},{"type":"Feature","properties":{"name":"Dali","country":"China","region":"Yunnan","pop":156685,"capital":"Populated place"},"geometry":{"type":"Point","coordinates":[100.18,25.7]}},{"type":"Feature","properties":{"name":"Kakinada","country":"India","region":"Andhra Pradesh","pop":292923,"capital":"Populated place"},"geometry":{"type":"Point","coordinates":[82.238,16.967]}},{"type":"Feature","properties":{"name":"Warangal","country":"India","region":"Telangana","pop":1203853,"capital":"Populated place"},"geometry":{"type":"Point","coordinates":[79.58,18.01]}},{"type":"Feature","properties":{"name":"Brahmapur","country":"India","region":"Orissa","pop":324726,"capital":"Populated place"},"geometry":{"type":"Point","coordinates":[84.8,19.32]}},{"type":"Feature","properties":{"name":"Vijayapura","country":"India","region":"Karnataka","pop":271064,"capital":"Populated place"},"geometry":{"type":"Point","coordinates":[75.71,16.835]}},{"type":"Feature","properties":{"name":"Bhiwandi","country":"India","region":"Maharashtra","pop":795000,"capital":"Populated place"},"geometry":{"type":"Point","coordinates":[73.128,19.352]}},{"type":"Feature","properties":{"name":"Latur","country":"India","region":"Maharashtra","pop":374394,"capital":"Populated place"},"geometry":{"type":"Point","coordinates":[76.57,18.4]}},{"type":"Feature","properties":{"name":"Ahmednagar","country":"India","region":"Maharashtra","pop":391760,"capital":"Populated place"},"geometry":{"type":"Point","coordinates":[74.75,19.11]}},{"type":"Feature","properties":{"name":"Chandrapur","country":"India","region":"Maharashtra","pop":595118,"capital":"Populated place"},"geometry":{"type":"Point","coordinates":[79.3,19.97]}},{"type":"Feature","properties":{"name":"Amravati","country":"India","region":"Maharashtra","pop":734451,"capital":"Populated place"},"geometry":{"type":"Point","coordinates":[77.77,20.95]}},{"type":"Feature","properties":{"name":"Dhule","country":"India","region":"Maharashtra","pop":479073,"capital":"Populated place"},"geometry":{"type":"Point","coordinates":[74.77,20.9]}},{"type":"Feature","properties":{"name":"Dibrugarh","country":"India","region":"Assam","pop":166366,"capital":"Populated place"},"geometry":{"type":"Point","coordinates":[94.9,27.483]}},{"type":"Feature","properties":{"name":"Imphal","country":"India","region":"Manipur","pop":264986,"capital":"Admin-1 capital"},"geometry":{"type":"Point","coordinates":[93.95,24.8]}},{"type":"Feature","properties":{"name":"Bam","country":"Iran","region":"Kerman","pop":99268,"capital":"Populated place"},"geometry":{"type":"Point","coordinates":[58.362,29.108]}},{"type":"Feature","properties":{"name":"Kerman","country":"Iran","region":"Kerman","pop":577514,"capital":"Admin-1 capital"},"geometry":{"type":"Point","coordinates":[57.08,30.3]}},{"type":"Feature","properties":{"name":"Udaipur","country":"India","region":"Rajasthan","pop":469737,"capital":"Populated place"},"geometry":{"type":"Point","coordinates":[73.73,24.6]}},{"type":"Feature","properties":{"name":"Gorakhpur","country":"India","region":"Uttar Pradesh","pop":674246,"capital":"Populated place"},"geometry":{"type":"Point","coordinates":[83.38,26.75]}},{"type":"Feature","properties":{"name":"Barddhaman","country":"India","region":"West Bengal","pop":301725,"capital":"Populated place"},"geometry":{"type":"Point","coordinates":[87.865,23.25]}},{"type":"Feature","properties":{"name":"Krishnanagar","country":"India","region":"West Bengal","pop":145926,"capital":"Populated place"},"geometry":{"type":"Point","coordinates":[88.53,23.38]}},{"type":"Feature","properties":{"name":"Gaya","country":"India","region":"Bihar","pop":423692,"capital":"Populated place"},"geometry":{"type":"Point","coordinates":[85.0,24.8]}},{"type":"Feature","properties":{"name":"Porbandar","country":"India","region":"Dadra and Nagar Haveli","pop":234684,"capital":"Populated place"},"geometry":{"type":"Point","coordinates":[69.67,21.67]}},{"type":"Feature","properties":{"name":"Sadah","country":"Yemen","region":"Sa`dah","pop":105542,"capital":"Admin-1 capital"},"geometry":{"type":"Point","coordinates":[43.85,16.94]}},{"type":"Feature","properties":{"name":"Al Hudaydah","country":"Yemen","region":"Al Hudaydah","pop":780000,"capital":"Admin-1 capital"},"geometry":{"type":"Point","coordinates":[42.951,14.8]}},{"type":"Feature","properties":{"name":"Al Mukalla","country":"Yemen","region":"Hadramawt","pop":258132,"capital":"Admin-1 capital"},"geometry":{"type":"Point","coordinates":[49.126,14.541]}},{"type":"Feature","properties":{"name":"Phuket","country":"Thailand","region":"Phuket","pop":141618,"capital":"Admin-1 capital"},"geometry":{"type":"Point","coordinates":[98.382,7.877]}},{"type":"Feature","properties":{"name":"Rangpur","country":"Bangladesh","region":"Rajshahi","pop":285564,"capital":"Populated place"},"geometry":{"type":"Point","coordinates":[89.28,25.75]}},{"type":"Feature","properties":{"name":"Bago","country":"Myanmar","region":"Bago","pop":284318,"capital":"Admin-1 capital"},"geometry":{"type":"Point","coordinates":[96.515,17.32]}},{"type":"Feature","properties":{"name":"Pyay","country":"Myanmar","region":"Bago","pop":135308,"capital":"Populated place"},"geometry":{"type":"Point","coordinates":[95.211,18.816]}},{"type":"Feature","properties":{"name":"Magway","country":"Myanmar","region":"Magway","pop":125973,"capital":"Admin-1 capital"},"geometry":{"type":"Point","coordinates":[94.92,20.145]}},{"type":"Feature","properties":{"name":"Myitkyina","country":"Myanmar","region":"Kachin","pop":139100,"capital":"Admin-1 capital"},"geometry":{"type":"Point","coordinates":[97.393,25.36]}},{"type":"Feature","properties":{"name":"Monywa","country":"Myanmar","region":"Sagaing","pop":226222,"capital":"Populated place"},"geometry":{"type":"Point","coordinates":[95.15,22.105]}},{"type":"Feature","properties":{"name":"Nakhon Si Thammarat","country":"Thailand","region":"Nakhon Si Thammarat","pop":232335,"capital":"Admin-1 capital"},"geometry":{"type":"Point","coordinates":[99.97,8.4]}},{"type":"Feature","properties":{"name":"Hat Yai","country":"Thailand","region":"Songkhla","pop":317954,"capital":"Populated place"},"geometry":{"type":"Point","coordinates":[100.471,6.996]}},{"type":"Feature","properties":{"name":"Nakhon Sawan","country":"Thailand","region":"Nakhon Sawan","pop":111915,"capital":"Admin-1 capital"},"geometry":{"type":"Point","coordinates":[100.07,15.7]}},{"type":"Feature","properties":{"name":"Abha","country":"Saudi Arabia","region":"`Asir","pop":210886,"capital":"Admin-1 capital"},"geometry":{"type":"Point","coordinates":[42.5,18.23]}},{"type":"Feature","properties":{"name":"Jizan","country":"Saudi Arabia","region":"Jizan","pop":105198,"capital":"Admin-1 capital"},"geometry":{"type":"Point","coordinates":[42.557,16.907]}},{"type":"Feature","properties":{"name":"Baydhabo","country":"Somalia","region":"Bay","pop":129839,"capital":"Admin-1 capital"},"geometry":{"type":"Point","coordinates":[43.65,3.12]}},{"type":"Feature","properties":{"name":"Nizwa","country":"Oman","region":"Ad Dakhliyah","pop":72076,"capital":"Populated place"},"geometry":{"type":"Point","coordinates":[57.531,22.926]}},{"type":"Feature","properties":{"name":"Sur","country":"Oman","region":"Ash Sharqiyah","pop":71152,"capital":"Populated place"},"geometry":{"type":"Point","coordinates":[59.535,22.576]}},{"type":"Feature","properties":{"name":"Beledweyne","country":"Somalia","region":"Hiiraan","pop":62945,"capital":"Admin-1 capital"},"geometry":{"type":"Point","coordinates":[45.2,4.74]}},{"type":"Feature","properties":{"name":"Gaalkacyo","country":"Somalia","region":"Mudug","pop":61200,"capital":"Admin-1 capital"},"geometry":{"type":"Point","coordinates":[47.43,6.77]}},{"type":"Feature","properties":{"name":"Anuradhapura","country":"Sri Lanka","region":"Anuradhapura","pop":118302,"capital":"Admin-1 capital"},"geometry":{"type":"Point","coordinates":[80.383,8.35]}},{"type":"Feature","properties":{"name":"Jaffna","country":"Sri Lanka","region":"Jaffna","pop":250000,"capital":"Populated place"},"geometry":{"type":"Point","coordinates":[80.005,9.675]}},{"type":"Feature","properties":{"name":"Jamaame","country":"Somalia","region":"Jubbada Hoose","pop":185270,"capital":"Populated place"},"geometry":{"type":"Point","coordinates":[42.751,0.072]}},{"type":"Feature","properties":{"name":"Kismaayo","country":"Somalia","region":"Jubbada Hoose","pop":234852,"capital":"Admin-1 capital"},"geometry":{"type":"Point","coordinates":[42.518,-0.357]}},{"type":"Feature","properties":{"name":"Sibolga","country":"Indonesia","region":"Sumatera Utara","pop":217312,"capital":"Populated place"},"geometry":{"type":"Point","coordinates":[98.8,1.75]}},{"type":"Feature","properties":{"name":"Pematangsiantar","country":"Indonesia","region":"Sumatera Utara","pop":341200,"capital":"Populated place"},"geometry":{"type":"Point","coordinates":[99.061,2.961]}},{"type":"Feature","properties":{"name":"Pekanbaru","country":"Indonesia","region":"Riau","pop":799000,"capital":"Admin-1 capital"},"geometry":{"type":"Point","coordinates":[101.423,0.567]}},{"type":"Feature","properties":{"name":"Lhokseumawe","country":"Indonesia","region":"Aceh","pop":140322,"capital":"Populated place"},"geometry":{"type":"Point","coordinates":[97.141,5.191]}},{"type":"Feature","properties":{"name":"Taiping","country":"Malaysia","region":"Perak","pop":237095,"capital":"Populated place"},"geometry":{"type":"Point","coordinates":[100.72,4.865]}},{"type":"Feature","properties":{"name":"Ipoh","country":"Malaysia","region":"Perak","pop":673318,"capital":"Admin-1 capital"},"geometry":{"type":"Point","coordinates":[101.065,4.6]}},{"type":"Feature","properties":{"name":"Malindi","country":"Kenya","region":"Coast","pop":94016,"capital":"Populated place"},"geometry":{"type":"Point","coordinates":[40.1,-3.21]}},{"type":"Feature","properties":{"name":"Nellore","country":"India","region":"Andhra Pradesh","pop":678004,"capital":"Populated place"},"geometry":{"type":"Point","coordinates":[79.99,14.44]}},{"type":"Feature","properties":{"name":"Kurnool","country":"India","region":"Andhra Pradesh","pop":424920,"capital":"Populated place"},"geometry":{"type":"Point","coordinates":[78.03,15.83]}},{"type":"Feature","properties":{"name":"Guntur","country":"India","region":"Andhra Pradesh","pop":530577,"capital":"Populated place"},"geometry":{"type":"Point","coordinates":[80.45,16.33]}},{"type":"Feature","properties":{"name":"Tumakuru","country":"India","region":"Karnataka","pop":399606,"capital":"Populated place"},"geometry":{"type":"Point","coordinates":[77.1,13.33]}},{"type":"Feature","properties":{"name":"Davangere","country":"India","region":"Karnataka","pop":503564,"capital":"Populated place"},"geometry":{"type":"Point","coordinates":[75.92,14.47]}},{"type":"Feature","properties":{"name":"Ballari","country":"India","region":"Karnataka","pop":445388,"capital":"Populated place"},"geometry":{"type":"Point","coordinates":[76.915,15.15]}},{"type":"Feature","properties":{"name":"Belagavi","country":"India","region":"Karnataka","pop":608756,"capital":"Populated place"},"geometry":{"type":"Point","coordinates":[74.505,15.865]}},{"type":"Feature","properties":{"name":"Dese","country":"Ethiopia","region":"Amhara","pop":183802,"capital":"Admin-1 capital"},"geometry":{"type":"Point","coordinates":[39.63,11.13]}},{"type":"Feature","properties":{"name":"Harar","country":"Ethiopia","region":"Addis Ababa","pop":174994,"capital":"Admin-1 capital"},"geometry":{"type":"Point","coordinates":[42.15,9.32]}},{"type":"Feature","properties":{"name":"Nazret","country":"Ethiopia","region":"Addis Ababa","pop":476892,"capital":"Populated place"},"geometry":{"type":"Point","coordinates":[39.27,8.55]}},{"type":"Feature","properties":{"name":"Gode","country":"Ethiopia","region":"Somali","pop":75000,"capital":"Populated place"},"geometry":{"type":"Point","coordinates":[43.45,5.95]}},{"type":"Feature","properties":{"name":"Bandar-e Bushehr","country":"Iran","region":"Bushehr","pop":169060,"capital":"Admin-1 capital"},"geometry":{"type":"Point","coordinates":[50.83,28.92]}},{"type":"Feature","properties":{"name":"Abadan","country":"Iran","region":"Khuzestan","pop":370180,"capital":"Populated place"},"geometry":{"type":"Point","coordinates":[48.28,30.331]}},{"type":"Feature","properties":{"name":"Zabol","country":"Iran","region":"Sistan and Baluchestan","pop":233968,"capital":"Populated place"},"geometry":{"type":"Point","coordinates":[61.481,31.021]}},{"type":"Feature","properties":{"name":"Zahedan","country":"Iran","region":"Sistan and Baluchestan","pop":598887,"capital":"Admin-1 capital"},"geometry":{"type":"Point","coordinates":[60.83,29.5]}},{"type":"Feature","properties":{"name":"Tuticorin","country":"India","region":"Tamil Nadu","pop":436094,"capital":"Populated place"},"geometry":{"type":"Point","coordinates":[78.13,8.82]}},{"type":"Feature","properties":{"name":"Dindigul","country":"India","region":"Tamil Nadu","pop":200797,"capital":"Populated place"},"geometry":{"type":"Point","coordinates":[78.0,10.38]}},{"type":"Feature","properties":{"name":"Myeik","country":"Myanmar","region":"Tanintharyi","pop":266720,"capital":"Populated place"},"geometry":{"type":"Point","coordinates":[98.611,12.454]}},{"type":"Feature","properties":{"name":"Chandigarh","country":"India","region":"Chandigarh","pop":979000,"capital":"Admin-1 capital"},"geometry":{"type":"Point","coordinates":[76.778,30.722]}},{"type":"Feature","properties":{"name":"Sholapur","country":"India","region":"Maharashtra","pop":1057000,"capital":"Populated place"},"geometry":{"type":"Point","coordinates":[75.898,17.672]}},{"type":"Feature","properties":{"name":"Aurangabad","country":"India","region":"Maharashtra","pop":1113000,"capital":"Populated place"},"geometry":{"type":"Point","coordinates":[75.318,19.898]}},{"type":"Feature","properties":{"name":"Nasik","country":"India","region":"Maharashtra","pop":1473000,"capital":"Populated place"},"geometry":{"type":"Point","coordinates":[73.778,20.002]}},{"type":"Feature","properties":{"name":"Jullundur","country":"India","region":"Punjab","pop":855000,"capital":"Populated place"},"geometry":{"type":"Point","coordinates":[75.567,31.337]}},{"type":"Feature","properties":{"name":"Allahabad","country":"India","region":"Uttar Pradesh","pop":1201000,"capital":"Populated place"},"geometry":{"type":"Point","coordinates":[81.838,25.457]}},{"type":"Feature","properties":{"name":"Moradabad","country":"India","region":"Uttar Pradesh","pop":787000,"capital":"Populated place"},"geometry":{"type":"Point","coordinates":[78.755,28.844]}},{"type":"Feature","properties":{"name":"Ghaziabad","country":"India","region":"Uttar Pradesh","pop":1341000,"capital":"Populated place"},"geometry":{"type":"Point","coordinates":[77.406,28.662]}},{"type":"Feature","properties":{"name":"Agra","country":"India","region":"Uttar Pradesh","pop":1592000,"capital":"Populated place"},"geometry":{"type":"Point","coordinates":[78.013,27.172]}},{"type":"Feature","properties":{"name":"Aligarh","country":"India","region":"Uttar Pradesh","pop":805000,"capital":"Populated place"},"geometry":{"type":"Point","coordinates":[78.06,27.894]}},{"type":"Feature","properties":{"name":"Meerut","country":"India","region":"Uttar Pradesh","pop":1398000,"capital":"Populated place"},"geometry":{"type":"Point","coordinates":[77.698,29.002]}},{"type":"Feature","properties":{"name":"Dhanbad","country":"India","region":"Jharkhand","pop":1246000,"capital":"Populated place"},"geometry":{"type":"Point","coordinates":[86.418,23.802]}},{"type":"Feature","properties":{"name":"Gwalior","country":"India","region":"Madhya Pradesh","pop":978000,"capital":"Populated place"},"geometry":{"type":"Point","coordinates":[78.178,26.232]}},{"type":"Feature","properties":{"name":"Vadodara","country":"India","region":"Dadra and Nagar Haveli","pop":1756000,"capital":"Populated place"},"geometry":{"type":"Point","coordinates":[73.178,22.312]}},{"type":"Feature","properties":{"name":"Rajkot","country":"India","region":"Dadra and Nagar Haveli","pop":1260000,"capital":"Populated place"},"geometry":{"type":"Point","coordinates":[70.798,22.312]}},{"type":"Feature","properties":{"name":"Taizz","country":"Yemen","region":"Ta`izz","pop":751000,"capital":"Admin-1 capital"},"geometry":{"type":"Point","coordinates":[44.037,13.606]}},{"type":"Feature","properties":{"name":"Surat Thani","country":"Thailand","region":"Surat Thani","pop":157627,"capital":"Admin-1 capital"},"geometry":{"type":"Point","coordinates":[99.34,9.15]}},{"type":"Feature","properties":{"name":"Chiang Mai","country":"Thailand","region":"Chiang Mai","pop":397211,"capital":"Admin-1 capital"},"geometry":{"type":"Point","coordinates":[98.98,18.8]}},{"type":"Feature","properties":{"name":"Medina","country":"Saudi Arabia","region":"Al Madinah","pop":1010000,"capital":"Admin-1 capital"},"geometry":{"type":"Point","coordinates":[39.578,24.502]}},{"type":"Feature","properties":{"name":"Doha","country":"Qatar","region":"Ad Dawhah","pop":1450000,"capital":"Admin-0 capital"},"geometry":{"type":"Point","coordinates":[51.533,25.287]}},{"type":"Feature","properties":{"name":"Quetta","country":"Pakistan","region":"Baluchistan","pop":768000,"capital":"Admin-1 capital"},"geometry":{"type":"Point","coordinates":[67.023,30.222]}},{"type":"Feature","properties":{"name":"Larkana","country":"Pakistan","region":"Sind","pop":364033,"capital":"Populated place"},"geometry":{"type":"Point","coordinates":[68.207,27.562]}},{"type":"Feature","properties":{"name":"Kandy","country":"Sri Lanka","region":"Kandy","pop":111701,"capital":"Admin-1 capital"},"geometry":{"type":"Point","coordinates":[80.67,7.28]}},{"type":"Feature","properties":{"name":"Sri Jayawardenepura Kotte","country":"Sri Lanka","region":"Colombo","pop":115826,"capital":"Admin-0 capital alt"},"geometry":{"type":"Point","coordinates":[79.95,6.9]}},{"type":"Feature","properties":{"name":"Banda Aceh","country":"Indonesia","region":"Aceh","pop":513698,"capital":"Admin-1 capital"},"geometry":{"type":"Point","coordinates":[95.32,5.55]}},{"type":"Feature","properties":{"name":"George Town","country":"Malaysia","region":"Pulau Pinang","pop":2500000,"capital":"Admin-1 capital"},"geometry":{"type":"Point","coordinates":[100.329,5.414]}},{"type":"Feature","properties":{"name":"Assab","country":"Eritrea","region":"Debubawi Keyih Bahri","pop":105496,"capital":"Admin-1 capital"},"geometry":{"type":"Point","coordinates":[42.73,13.01]}},{"type":"Feature","properties":{"name":"Djibouti","country":"Djibouti","region":"Djibouti","pop":923000,"capital":"Admin-0 capital"},"geometry":{"type":"Point","coordinates":[43.148,11.595]}},{"type":"Feature","properties":{"name":"Xigaze","country":"China","region":"Xizang","pop":80000,"capital":"Populated place"},"geometry":{"type":"Point","coordinates":[88.883,29.25]}},{"type":"Feature","properties":{"name":"Putrajaya","country":"Malaysia","region":"Selangor","pop":67964,"capital":"Admin-0 capital alt"},"geometry":{"type":"Point","coordinates":[101.702,2.914]}},{"type":"Feature","properties":{"name":"Baoshan","country":"China","region":"Yunnan","pop":1000000,"capital":"Populated place"},"geometry":{"type":"Point","coordinates":[99.15,25.12]}},{"type":"Feature","properties":{"name":"Faridabad","country":"India","region":"Haryana","pop":1394000,"capital":"Populated place"},"geometry":{"type":"Point","coordinates":[77.315,28.435]}},{"type":"Feature","properties":{"name":"Vijayawada","country":"India","region":"Andhra Pradesh","pop":1137000,"capital":"Populated place"},"geometry":{"type":"Point","coordinates":[80.628,16.522]}},{"type":"Feature","properties":{"name":"Thiruvananthapuram","country":"India","region":"Kerala","pop":954000,"capital":"Admin-1 capital"},"geometry":{"type":"Point","coordinates":[76.948,8.502]}},{"type":"Feature","properties":{"name":"Kochi","country":"India","region":"Kerala","pop":1519000,"capital":"Populated place"},"geometry":{"type":"Point","coordinates":[76.222,10.017]}},{"type":"Feature","properties":{"name":"Cuttack","country":"India","region":"Orissa","pop":580000,"capital":"Populated place"},"geometry":{"type":"Point","coordinates":[85.89,20.47]}},{"type":"Feature","properties":{"name":"Hubballi","country":"India","region":"Karnataka","pop":890000,"capital":"Populated place"},"geometry":{"type":"Point","coordinates":[75.123,15.362]}},{"type":"Feature","properties":{"name":"Mangaluru","country":"India","region":"Karnataka","pop":776632,"capital":"Populated place"},"geometry":{"type":"Point","coordinates":[74.85,12.9]}},{"type":"Feature","properties":{"name":"Mysuru","country":"India","region":"Karnataka","pop":887000,"capital":"Populated place"},"geometry":{"type":"Point","coordinates":[76.658,12.312]}},{"type":"Feature","properties":{"name":"Kalaburagi","country":"India","region":"Karnataka","pop":483615,"capital":"Populated place"},"geometry":{"type":"Point","coordinates":[76.82,17.35]}},{"type":"Feature","properties":{"name":"Kolhapur","country":"India","region":"Maharashtra","pop":750000,"capital":"Populated place"},"geometry":{"type":"Point","coordinates":[74.22,16.7]}},{"type":"Feature","properties":{"name":"Nanded","country":"India","region":"Maharashtra","pop":623708,"capital":"Populated place"},"geometry":{"type":"Point","coordinates":[77.3,19.17]}},{"type":"Feature","properties":{"name":"Akola","country":"India","region":"Maharashtra","pop":503502,"capital":"Populated place"},"geometry":{"type":"Point","coordinates":[77.01,20.71]}},{"type":"Feature","properties":{"name":"Guwahati","country":"India","region":"Assam","pop":983000,"capital":"Populated place"},"geometry":{"type":"Point","coordinates":[91.768,26.162]}},{"type":"Feature","properties":{"name":"Mekele","country":"Ethiopia","region":"Tigray","pop":95856,"capital":"Admin-1 capital"},"geometry":{"type":"Point","coordinates":[39.47,13.5]}},{"type":"Feature","properties":{"name":"Dire Dawa","country":"Ethiopia","region":"Dire Dawa","pop":252279,"capital":"Populated place"},"geometry":{"type":"Point","coordinates":[41.86,9.59]}},{"type":"Feature","properties":{"name":"Yazd","country":"Iran","region":"Yazd","pop":477905,"capital":"Admin-1 capital"},"geometry":{"type":"Point","coordinates":[54.37,31.92]}},{"type":"Feature","properties":{"name":"Ahvaz","country":"Iran","region":"Khuzestan","pop":996000,"capital":"Admin-1 capital"},"geometry":{"type":"Point","coordinates":[48.718,31.282]}},{"type":"Feature","properties":{"name":"Basra","country":"Iraq","region":"Al-Basrah","pop":870000,"capital":"Admin-1 capital"},"geometry":{"type":"Point","coordinates":[47.812,30.515]}},{"type":"Feature","properties":{"name":"Bandar-e-Abbas","country":"Iran","region":"Hormozgan","pop":461499,"capital":"Admin-1 capital"},"geometry":{"type":"Point","coordinates":[56.272,27.204]}},{"type":"Feature","properties":{"name":"Ludhiana","country":"India","region":"Punjab","pop":1649000,"capital":"Populated place"},"geometry":{"type":"Point","coordinates":[75.87,30.93]}},{"type":"Feature","properties":{"name":"Kota","country":"India","region":"Rajasthan","pop":827000,"capital":"Populated place"},"geometry":{"type":"Point","coordinates":[75.833,25.182]}},{"type":"Feature","properties":{"name":"Jodhpur","country":"India","region":"Rajasthan","pop":995000,"capital":"Populated place"},"geometry":{"type":"Point","coordinates":[73.015,26.294]}},{"type":"Feature","properties":{"name":"Lucknow","country":"India","region":"Uttar Pradesh","pop":2695000,"capital":"Admin-1 capital"},"geometry":{"type":"Point","coordinates":[80.913,26.857]}},{"type":"Feature","properties":{"name":"Saharanpur","country":"India","region":"Uttar Pradesh","pop":484873,"capital":"Populated place"},"geometry":{"type":"Point","coordinates":[77.55,29.97]}},{"type":"Feature","properties":{"name":"Ranchi","country":"India","region":"Jharkhand","pop":1044000,"capital":"Admin-1 capital"},"geometry":{"type":"Point","coordinates":[85.328,23.372]}},{"type":"Feature","properties":{"name":"Bhagalpur","country":"India","region":"Bihar","pop":361548,"capital":"Populated place"},"geometry":{"type":"Point","coordinates":[86.98,25.23]}},{"type":"Feature","properties":{"name":"Raipur","country":"India","region":"Chhattisgarh","pop":875000,"capital":"Admin-1 capital"},"geometry":{"type":"Point","coordinates":[81.633,21.237]}},{"type":"Feature","properties":{"name":"Jabalpur","country":"India","region":"Madhya Pradesh","pop":1285000,"capital":"Populated place"},"geometry":{"type":"Point","coordinates":[79.953,23.177]}},{"type":"Feature","properties":{"name":"Indore","country":"India","region":"Madhya Pradesh","pop":2026000,"capital":"Populated place"},"geometry":{"type":"Point","coordinates":[75.863,22.717]}},{"type":"Feature","properties":{"name":"Puducherry","country":"India","region":"Puducherry","pop":227411,"capital":"Admin-1 capital"},"geometry":{"type":"Point","coordinates":[79.83,11.935]}},{"type":"Feature","properties":{"name":"Salem","country":"India","region":"Tamil Nadu","pop":873000,"capital":"Populated place"},"geometry":{"type":"Point","coordinates":[78.178,11.672]}},{"type":"Feature","properties":{"name":"Tiruchirappalli","country":"India","region":"Tamil Nadu","pop":951000,"capital":"Populated place"},"geometry":{"type":"Point","coordinates":[78.688,10.812]}},{"type":"Feature","properties":{"name":"Khulna","country":"Bangladesh","region":"Khulna","pop":1553000,"capital":"Admin-1 capital"},"geometry":{"type":"Point","coordinates":[89.558,22.842]}},{"type":"Feature","properties":{"name":"Rajshahi","country":"Bangladesh","region":"Rajshahi","pop":810000,"capital":"Admin-1 capital"},"geometry":{"type":"Point","coordinates":[88.603,24.377]}},{"type":"Feature","properties":{"name":"Mandalay","country":"Myanmar","region":"Mandalay","pop":1300000,"capital":"Admin-1 capital"},"geometry":{"type":"Point","coordinates":[96.083,21.972]}},{"type":"Feature","properties":{"name":"Sittwe","country":"Myanmar","region":"Rakhine","pop":179032,"capital":"Admin-1 capital"},"geometry":{"type":"Point","coordinates":[92.88,20.14]}},{"type":"Feature","properties":{"name":"Berbera","country":"Somaliland","region":null,"pop":242344,"capital":"Populated place"},"geometry":{"type":"Point","coordinates":[45.016,10.436]}},{"type":"Feature","properties":{"name":"Manama","country":"Bahrain","region":null,"pop":563920,"capital":"Admin-0 capital"},"geometry":{"type":"Point","coordinates":[50.583,26.236]}},{"type":"Feature","properties":{"name":"Amaravati","country":"India","region":"Andhra Pradesh","pop":5800000,"capital":"Admin-1 capital"},"geometry":{"type":"Point","coordinates":[80.524,16.534]}},{"type":"Feature","properties":{"name":"Kozhikode","country":"India","region":"Kerala","pop":953000,"capital":"Populated place"},"geometry":{"type":"Point","coordinates":[75.768,11.252]}},{"type":"Feature","properties":{"name":"Bhubaneswar","country":"India","region":"Orissa","pop":844000,"capital":"Admin-1 capital"},"geometry":{"type":"Point","coordinates":[85.825,20.272]}},{"type":"Feature","properties":{"name":"Jamshedpur","country":"India","region":"Jharkhand","pop":1300000,"capital":"Populated place"},"geometry":{"type":"Point","coordinates":[86.196,22.789]}},{"type":"Feature","properties":{"name":"Abu Dhabi","country":"United Arab Emirates","region":"Abu Dhabi","pop":603492,"capital":"Admin-0 capital"},"geometry":{"type":"Point","coordinates":[54.367,24.467]}},{"type":"Feature","properties":{"name":"Aden","country":"Yemen","region":"`Adan","pop":1000000,"capital":"Admin-1 capital"},"geometry":{"type":"Point","coordinates":[45.009,12.78]}},{"type":"Feature","properties":{"name":"Multan","country":"Pakistan","region":"Punjab","pop":1522000,"capital":"Populated place"},"geometry":{"type":"Point","coordinates":[71.453,30.202]}},{"type":"Feature","properties":{"name":"Hyderabad","country":"Pakistan","region":"Sind","pop":1459000,"capital":"Populated place"},"geometry":{"type":"Point","coordinates":[68.373,25.382]}},{"type":"Feature","properties":{"name":"Kathmandu","country":"Nepal","region":"Bhaktapur","pop":895000,"capital":"Admin-0 capital"},"geometry":{"type":"Point","coordinates":[85.315,27.719]}},{"type":"Feature","properties":{"name":"Mogadishu","country":"Somalia","region":"Banaadir","pop":1100000,"capital":"Admin-0 capital"},"geometry":{"type":"Point","coordinates":[45.365,2.069]}},{"type":"Feature","properties":{"name":"Muscat","country":"Oman","region":"Muscat","pop":734697,"capital":"Admin-0 capital"},"geometry":{"type":"Point","coordinates":[58.593,23.613]}},{"type":"Feature","properties":{"name":"Colombo","country":"Sri Lanka","region":"Colombo","pop":217000,"capital":"Admin-0 capital"},"geometry":{"type":"Point","coordinates":[79.858,6.932]}},{"type":"Feature","properties":{"name":"Padang","country":"Indonesia","region":"Sumatera Barat","pop":855000,"capital":"Admin-1 capital"},"geometry":{"type":"Point","coordinates":[100.358,-0.958]}},{"type":"Feature","properties":{"name":"Mombasa","country":"Kenya","region":"Coast","pop":882000,"capital":"Admin-1 capital"},"geometry":{"type":"Point","coordinates":[39.688,-4.038]}},{"type":"Feature","properties":{"name":"Asmara","country":"Eritrea","region":"Anseba","pop":620802,"capital":"Admin-0 capital"},"geometry":{"type":"Point","coordinates":[38.933,15.333]}},{"type":"Feature","properties":{"name":"Lhasa","country":"China","region":"Xizang","pop":219599,"capital":"Admin-1 capital"},"geometry":{"type":"Point","coordinates":[91.1,29.645]}},{"type":"Feature","properties":{"name":"Vishakhapatnam","country":"India","region":"Andhra Pradesh","pop":1529000,"capital":"Populated place"},"geometry":{"type":"Point","coordinates":[83.303,17.732]}},{"type":"Feature","properties":{"name":"Shiraz","country":"Iran","region":"Fars","pop":1240000,"capital":"Admin-1 capital"},"geometry":{"type":"Point","coordinates":[52.568,29.632]}},{"type":"Feature","properties":{"name":"Amritsar","country":"India","region":"Punjab","pop":1212000,"capital":"Populated place"},"geometry":{"type":"Point","coordinates":[74.868,31.642]}},{"type":"Feature","properties":{"name":"Varanasi","country":"India","region":"Uttar Pradesh","pop":1352000,"capital":"Populated place"},"geometry":{"type":"Point","coordinates":[82.998,25.332]}},{"type":"Feature","properties":{"name":"Asansol","country":"India","region":"West Bengal","pop":1328000,"capital":"Populated place"},"geometry":{"type":"Point","coordinates":[86.981,23.685]}},{"type":"Feature","properties":{"name":"Bhilai","country":"India","region":"Chhattisgarh","pop":1097000,"capital":"Populated place"},"geometry":{"type":"Point","coordinates":[81.431,21.219]}},{"type":"Feature","properties":{"name":"Bhopal","country":"India","region":"Madhya Pradesh","pop":1727000,"capital":"Admin-1 capital"},"geometry":{"type":"Point","coordinates":[77.408,23.252]}},{"type":"Feature","properties":{"name":"Madurai","country":"India","region":"Tamil Nadu","pop":1294000,"capital":"Populated place"},"geometry":{"type":"Point","coordinates":[78.118,9.922]}},{"type":"Feature","properties":{"name":"Coimbatore","country":"India","region":"Tamil Nadu","pop":1696000,"capital":"Populated place"},"geometry":{"type":"Point","coordinates":[76.948,11.002]}},{"type":"Feature","properties":{"name":"Kandahar","country":"Afghanistan","region":"Kandahar","pop":715542,"capital":"Admin-1 capital"},"geometry":{"type":"Point","coordinates":[65.695,31.61]}},{"type":"Feature","properties":{"name":"Thimphu","country":"Bhutan","region":"Thimphu","pop":98676,"capital":"Admin-0 capital"},"geometry":{"type":"Point","coordinates":[89.639,27.473]}},{"type":"Feature","properties":{"name":"Naypyidaw","country":"Myanmar","region":"Mandalay","pop":930000,"capital":"Admin-0 capital"},"geometry":{"type":"Point","coordinates":[96.117,19.769]}},{"type":"Feature","properties":{"name":"Hargeisa","country":"Somaliland","region":null,"pop":477876,"capital":"Admin-0 capital"},"geometry":{"type":"Point","coordinates":[44.065,9.56]}},{"type":"Feature","properties":{"name":"Mal\u00e9","country":"Maldives","region":null,"pop":112927,"capital":"Admin-0 capital"},"geometry":{"type":"Point","coordinates":[73.5,4.167]}},{"type":"Feature","properties":{"name":"Sanaa","country":"Yemen","region":"Amanat Al Asimah","pop":2008000,"capital":"Admin-0 capital"},"geometry":{"type":"Point","coordinates":[44.205,15.357]}},{"type":"Feature","properties":{"name":"Jeddah","country":"Saudi Arabia","region":"Makkah","pop":3012000,"capital":"Populated place"},"geometry":{"type":"Point","coordinates":[39.217,21.519]}},{"type":"Feature","properties":{"name":"Makkah","country":"Saudi Arabia","region":"Makkah","pop":1385000,"capital":"Populated place"},"geometry":{"type":"Point","coordinates":[39.818,21.432]}},{"type":"Feature","properties":{"name":"Lahore","country":"Pakistan","region":"Punjab","pop":6577000,"capital":"Admin-1 capital"},"geometry":{"type":"Point","coordinates":[74.348,31.562]}},{"type":"Feature","properties":{"name":"Karachi","country":"Pakistan","region":"Sind","pop":12130000,"capital":"Admin-1 capital"},"geometry":{"type":"Point","coordinates":[66.988,24.872]}},{"type":"Feature","properties":{"name":"Medan","country":"Indonesia","region":"Sumatera Utara","pop":2115000,"capital":"Admin-1 capital"},"geometry":{"type":"Point","coordinates":[98.648,3.582]}},{"type":"Feature","properties":{"name":"Kuala Lumpur","country":"Malaysia","region":"Selangor","pop":1448000,"capital":"Admin-0 capital"},"geometry":{"type":"Point","coordinates":[101.698,3.169]}},{"type":"Feature","properties":{"name":"Kuwait City","country":"Kuwait","region":"Al Kuwayt","pop":2063000,"capital":"Admin-0 capital"},"geometry":{"type":"Point","coordinates":[47.976,29.372]}},{"type":"Feature","properties":{"name":"Delhi","country":"India","region":"Delhi","pop":15926000,"capital":"Populated place"},"geometry":{"type":"Point","coordinates":[77.228,28.672]}},{"type":"Feature","properties":{"name":"Hyderabad","country":"India","region":"Telangana","pop":6376000,"capital":"Admin-1 capital"},"geometry":{"type":"Point","coordinates":[78.478,17.402]}},{"type":"Feature","properties":{"name":"Pune","country":"India","region":"Maharashtra","pop":4672000,"capital":"Populated place"},"geometry":{"type":"Point","coordinates":[73.848,18.532]}},{"type":"Feature","properties":{"name":"Nagpur","country":"India","region":"Maharashtra","pop":2454000,"capital":"Populated place"},"geometry":{"type":"Point","coordinates":[79.088,21.172]}},{"type":"Feature","properties":{"name":"Jaipur","country":"India","region":"Rajasthan","pop":2917000,"capital":"Admin-1 capital"},"geometry":{"type":"Point","coordinates":[75.808,26.923]}},{"type":"Feature","properties":{"name":"Kanpur","country":"India","region":"Uttar Pradesh","pop":3162000,"capital":"Populated place"},"geometry":{"type":"Point","coordinates":[80.318,26.462]}},{"type":"Feature","properties":{"name":"Patna","country":"India","region":"Bihar","pop":2158000,"capital":"Admin-1 capital"},"geometry":{"type":"Point","coordinates":[85.128,25.627]}},{"type":"Feature","properties":{"name":"Chennai","country":"India","region":"Tamil Nadu","pop":7163000,"capital":"Admin-1 capital"},"geometry":{"type":"Point","coordinates":[80.278,13.092]}},{"type":"Feature","properties":{"name":"Ahmedabad","country":"India","region":"Dadra and Nagar Haveli","pop":5375000,"capital":"Populated place"},"geometry":{"type":"Point","coordinates":[72.578,23.032]}},{"type":"Feature","properties":{"name":"Surat","country":"India","region":"Dadra and Nagar Haveli","pop":3842000,"capital":"Populated place"},"geometry":{"type":"Point","coordinates":[72.838,21.202]}},{"type":"Feature","properties":{"name":"Dhaka","country":"Bangladesh","region":"Dhaka","pop":12797394,"capital":"Admin-0 capital"},"geometry":{"type":"Point","coordinates":[90.407,23.725]}},{"type":"Feature","properties":{"name":"Chattogram","country":"Bangladesh","region":"Chittagong","pop":4529000,"capital":"Admin-1 capital"},"geometry":{"type":"Point","coordinates":[91.798,22.332]}},{"type":"Feature","properties":{"name":"Yangon","country":"Myanmar","region":"Yangon","pop":4088000,"capital":"Admin-0 capital"},"geometry":{"type":"Point","coordinates":[96.165,16.785]}},{"type":"Feature","properties":{"name":"Dubai","country":"United Arab Emirates","region":"Dubay","pop":1379000,"capital":"Admin-1 capital"},"geometry":{"type":"Point","coordinates":[55.278,25.232]}},{"type":"Feature","properties":{"name":"Bangkok","country":"Thailand","region":"Bangkok Metropolis","pop":6704000,"capital":"Admin-0 capital"},"geometry":{"type":"Point","coordinates":[100.515,13.752]}},{"type":"Feature","properties":{"name":"New Delhi","country":"India","region":"Delhi","pop":317797,"capital":"Admin-0 capital"},"geometry":{"type":"Point","coordinates":[77.2,28.6]}},{"type":"Feature","properties":{"name":"Bengaluru","country":"India","region":"Karnataka","pop":6787000,"capital":"Admin-1 capital"},"geometry":{"type":"Point","coordinates":[77.558,12.972]}},{"type":"Feature","properties":{"name":"Addis Ababa","country":"Ethiopia","region":"Addis Ababa","pop":3100000,"capital":"Admin-0 capital"},"geometry":{"type":"Point","coordinates":[38.698,9.035]}},{"type":"Feature","properties":{"name":"Riyadh","country":"Saudi Arabia","region":"Ar Riyad","pop":4465000,"capital":"Admin-0 capital"},"geometry":{"type":"Point","coordinates":[46.771,24.643]}},{"type":"Feature","properties":{"name":"Mumbai","country":"India","region":"Maharashtra","pop":18978000,"capital":"Admin-1 capital"},"geometry":{"type":"Point","coordinates":[72.855,19.019]}},{"type":"Feature","properties":{"name":"Kolkata","country":"India","region":"West Bengal","pop":14787000,"capital":"Admin-1 capital"},"geometry":{"type":"Point","coordinates":[88.323,22.497]}}]}